<?xml version="1.0" encoding="UTF-8"?>
<gpx xmlns="http://www.topografix.com/GPX/1/1" xmlns:gpxdata="http://www.cluetrust.com/XML/GPXDATA/1/0" xmlns:xsi="http://www.w3.org/2001/XMLSchema-instance" xsi:schemaLocation="http://www.topografix.com/GPX/1/1 https://www.topografix.com/GPX/1/1/gpx.xsd http://www.cluetrust.com/XML/GPXDATA/1/0 https://www.cluetrust.com/Schemas/gpxdata10.xsd" creator="COROS Wearables" version="1.1">
 <metadata>
  <link href="https://www.coros.com">
   <text>COROS</text>
  </link>
  <time>2026-07-25T09:52:40Z</time>
  <coros_edit>1</coros_edit>
 </metadata>
 <trk>
  <name>Ciney - Croisette Promenade</name>
  <type>Other</type>
  <trkseg>
   <trkpt lat="50.2796779" lon="5.1342930">
    <ele>293</ele>
   </trkpt>
   <trkpt lat="50.2797810" lon="5.1344060">
    <ele>293</ele>
   </trkpt>
   <trkpt lat="50.2799620" lon="5.1345330">
    <ele>293</ele>
   </trkpt>
   <trkpt lat="50.2800320" lon="5.1345250">
    <ele>293</ele>
   </trkpt>
   <trkpt lat="50.2801810" lon="5.1343520">
    <ele>293</ele>
   </trkpt>
   <trkpt lat="50.2805760" lon="5.1334620">
    <ele>296</ele>
   </trkpt>
   <trkpt lat="50.2815000" lon="5.1318010">
    <ele>307</ele>
   </trkpt>
   <trkpt lat="50.2818040" lon="5.1313280">
    <ele>308</ele>
   </trkpt>
   <trkpt lat="50.2819450" lon="5.1311520">
    <ele>309</ele>
   </trkpt>
   <trkpt lat="50.2823000" lon="5.1307670">
    <ele>310</ele>
   </trkpt>
   <trkpt lat="50.2825090" lon="5.1306060">
    <ele>310</ele>
   </trkpt>
   <trkpt lat="50.2834829" lon="5.1307159">
    <ele>312</ele>
   </trkpt>
   <trkpt lat="50.2811850" lon="5.1254950">
    <ele>309</ele>
   </trkpt>
   <trkpt lat="50.2801980" lon="5.1228830">
    <ele>307</ele>
   </trkpt>
   <trkpt lat="50.2797830" lon="5.1220750">
    <ele>306</ele>
   </trkpt>
   <trkpt lat="50.2794940" lon="5.1216170">
    <ele>306</ele>
   </trkpt>
   <trkpt lat="50.2783200" lon="5.1199730">
    <ele>306</ele>
   </trkpt>
   <trkpt lat="50.2776300" lon="5.1188960">
    <ele>305</ele>
   </trkpt>
   <trkpt lat="50.2741070" lon="5.1122980">
    <ele>290</ele>
   </trkpt>
   <trkpt lat="50.2736860" lon="5.1114650">
    <ele>288</ele>
   </trkpt>
   <trkpt lat="50.2736610" lon="5.1114330">
    <ele>288</ele>
   </trkpt>
   <trkpt lat="50.2736450" lon="5.1114090">
    <ele>287</ele>
   </trkpt>
   <trkpt lat="50.2732979" lon="5.1108540">
    <ele>285</ele>
   </trkpt>
   <trkpt lat="50.2729900" lon="5.1104580">
    <ele>283</ele>
   </trkpt>
   <trkpt lat="50.2723910" lon="5.1098330">
    <ele>280</ele>
   </trkpt>
   <trkpt lat="50.2720340" lon="5.1095050">
    <ele>278</ele>
   </trkpt>
   <trkpt lat="50.2716050" lon="5.1092180">
    <ele>275</ele>
   </trkpt>
   <trkpt lat="50.2714030" lon="5.1091040">
    <ele>274</ele>
   </trkpt>
   <trkpt lat="50.2710230" lon="5.1089440">
    <ele>273</ele>
   </trkpt>
   <trkpt lat="50.2709330" lon="5.1089240">
    <ele>272</ele>
   </trkpt>
   <trkpt lat="50.2708150" lon="5.1089270">
    <ele>272</ele>
   </trkpt>
   <trkpt lat="50.2706150" lon="5.1090010">
    <ele>271</ele>
   </trkpt>
   <trkpt lat="50.2704100" lon="5.1091810">
    <ele>270</ele>
   </trkpt>
   <trkpt lat="50.2703050" lon="5.1093240">
    <ele>269</ele>
   </trkpt>
   <trkpt lat="50.2701170" lon="5.1096060">
    <ele>268</ele>
   </trkpt>
   <trkpt lat="50.2698510" lon="5.1098780">
    <ele>266</ele>
   </trkpt>
   <trkpt lat="50.2696180" lon="5.1101160">
    <ele>265</ele>
   </trkpt>
   <trkpt lat="50.2691280" lon="5.1104760">
    <ele>263</ele>
   </trkpt>
   <trkpt lat="50.2689990" lon="5.1101240">
    <ele>262</ele>
   </trkpt>
   <trkpt lat="50.2688000" lon="5.1094240">
    <ele>260</ele>
   </trkpt>
   <trkpt lat="50.2686769" lon="5.1089320">
    <ele>258</ele>
   </trkpt>
   <trkpt lat="50.2686790" lon="5.1087630">
    <ele>258</ele>
   </trkpt>
   <trkpt lat="50.2687219" lon="5.1083240">
    <ele>257</ele>
   </trkpt>
   <trkpt lat="50.2687550" lon="5.1078560">
    <ele>255</ele>
   </trkpt>
   <trkpt lat="50.2687460" lon="5.1077230">
    <ele>255</ele>
   </trkpt>
   <trkpt lat="50.2685869" lon="5.1069699">
    <ele>255</ele>
   </trkpt>
   <trkpt lat="50.2680820" lon="5.1068300">
    <ele>256</ele>
   </trkpt>
   <trkpt lat="50.2678510" lon="5.1066690">
    <ele>256</ele>
   </trkpt>
   <trkpt lat="50.2677570" lon="5.1066020">
    <ele>256</ele>
   </trkpt>
   <trkpt lat="50.2680010" lon="5.1059320">
    <ele>256</ele>
   </trkpt>
   <trkpt lat="50.2681550" lon="5.1054830">
    <ele>257</ele>
   </trkpt>
   <trkpt lat="50.2682170" lon="5.1052080">
    <ele>257</ele>
   </trkpt>
   <trkpt lat="50.2679740" lon="5.1050440">
    <ele>258</ele>
   </trkpt>
   <trkpt lat="50.2678240" lon="5.1046940">
    <ele>258</ele>
   </trkpt>
   <trkpt lat="50.2678100" lon="5.1046569">
    <ele>258</ele>
   </trkpt>
   <trkpt lat="50.2677410" lon="5.1044790">
    <ele>258</ele>
   </trkpt>
   <trkpt lat="50.2676820" lon="5.1043100">
    <ele>258</ele>
   </trkpt>
   <trkpt lat="50.2676360" lon="5.1041780">
    <ele>259</ele>
   </trkpt>
   <trkpt lat="50.2676210" lon="5.1041240">
    <ele>259</ele>
   </trkpt>
   <trkpt lat="50.2675530" lon="5.1038530">
    <ele>259</ele>
   </trkpt>
   <trkpt lat="50.2675190" lon="5.1034910">
    <ele>259</ele>
   </trkpt>
   <trkpt lat="50.2675760" lon="5.1029980">
    <ele>260</ele>
   </trkpt>
   <trkpt lat="50.2675950" lon="5.1029010">
    <ele>260</ele>
   </trkpt>
   <trkpt lat="50.2676210" lon="5.1027740">
    <ele>261</ele>
   </trkpt>
   <trkpt lat="50.2676360" lon="5.1027040">
    <ele>261</ele>
   </trkpt>
   <trkpt lat="50.2676630" lon="5.1025750">
    <ele>261</ele>
   </trkpt>
   <trkpt lat="50.2677110" lon="5.1023240">
    <ele>261</ele>
   </trkpt>
   <trkpt lat="50.2677229" lon="5.1022470">
    <ele>261</ele>
   </trkpt>
   <trkpt lat="50.2677380" lon="5.1021250">
    <ele>261</ele>
   </trkpt>
   <trkpt lat="50.2677650" lon="5.1018110">
    <ele>262</ele>
   </trkpt>
   <trkpt lat="50.2677740" lon="5.1014430">
    <ele>262</ele>
   </trkpt>
   <trkpt lat="50.2677740" lon="5.1013090">
    <ele>263</ele>
   </trkpt>
   <trkpt lat="50.2677710" lon="5.1010870">
    <ele>263</ele>
   </trkpt>
   <trkpt lat="50.2677710" lon="5.1010669">
    <ele>263</ele>
   </trkpt>
   <trkpt lat="50.2677670" lon="5.1007900">
    <ele>263</ele>
   </trkpt>
   <trkpt lat="50.2677640" lon="5.1006340">
    <ele>264</ele>
   </trkpt>
   <trkpt lat="50.2677550" lon="5.1003100">
    <ele>264</ele>
   </trkpt>
   <trkpt lat="50.2677440" lon="5.0999820">
    <ele>264</ele>
   </trkpt>
   <trkpt lat="50.2677410" lon="5.0998870">
    <ele>265</ele>
   </trkpt>
   <trkpt lat="50.2677350" lon="5.0997290">
    <ele>265</ele>
   </trkpt>
   <trkpt lat="50.2677200" lon="5.0992920">
    <ele>265</ele>
   </trkpt>
   <trkpt lat="50.2677140" lon="5.0991710">
    <ele>266</ele>
   </trkpt>
   <trkpt lat="50.2677120" lon="5.0991170">
    <ele>266</ele>
   </trkpt>
   <trkpt lat="50.2677110" lon="5.0990909">
    <ele>266</ele>
   </trkpt>
   <trkpt lat="50.2676740" lon="5.0987400">
    <ele>266</ele>
   </trkpt>
   <trkpt lat="50.2676630" lon="5.0986610">
    <ele>266</ele>
   </trkpt>
   <trkpt lat="50.2676469" lon="5.0985520">
    <ele>266</ele>
   </trkpt>
   <trkpt lat="50.2676040" lon="5.0982530">
    <ele>267</ele>
   </trkpt>
   <trkpt lat="50.2675000" lon="5.0975450">
    <ele>268</ele>
   </trkpt>
   <trkpt lat="50.2673730" lon="5.0965560">
    <ele>269</ele>
   </trkpt>
   <trkpt lat="50.2673380" lon="5.0956820">
    <ele>270</ele>
   </trkpt>
   <trkpt lat="50.2673650" lon="5.0950480">
    <ele>271</ele>
   </trkpt>
   <trkpt lat="50.2674779" lon="5.0938200">
    <ele>273</ele>
   </trkpt>
   <trkpt lat="50.2674820" lon="5.0937740">
    <ele>273</ele>
   </trkpt>
   <trkpt lat="50.2674830" lon="5.0910370">
    <ele>280</ele>
   </trkpt>
   <trkpt lat="50.2670249" lon="5.0876460">
    <ele>292</ele>
   </trkpt>
   <trkpt lat="50.2669410" lon="5.0872820">
    <ele>294</ele>
   </trkpt>
   <trkpt lat="50.2666940" lon="5.0865910">
    <ele>295</ele>
   </trkpt>
   <trkpt lat="50.2663730" lon="5.0857620">
    <ele>297</ele>
   </trkpt>
   <trkpt lat="50.2661860" lon="5.0852639">
    <ele>298</ele>
   </trkpt>
   <trkpt lat="50.2660660" lon="5.0849050">
    <ele>299</ele>
   </trkpt>
   <trkpt lat="50.2659200" lon="5.0843080">
    <ele>299</ele>
   </trkpt>
   <trkpt lat="50.2657610" lon="5.0833480">
    <ele>300</ele>
   </trkpt>
   <trkpt lat="50.2657260" lon="5.0831460">
    <ele>300</ele>
   </trkpt>
   <trkpt lat="50.2657219" lon="5.0831210">
    <ele>300</ele>
   </trkpt>
   <trkpt lat="50.2655540" lon="5.0819820">
    <ele>301</ele>
   </trkpt>
   <trkpt lat="50.2654960" lon="5.0813980">
    <ele>302</ele>
   </trkpt>
   <trkpt lat="50.2654480" lon="5.0811719">
    <ele>302</ele>
   </trkpt>
   <trkpt lat="50.2644620" lon="5.0774880">
    <ele>306</ele>
   </trkpt>
   <trkpt lat="50.2643470" lon="5.0769510">
    <ele>307</ele>
   </trkpt>
   <trkpt lat="50.2636960" lon="5.0717630">
    <ele>305</ele>
   </trkpt>
   <trkpt lat="50.2636830" lon="5.0715930">
    <ele>305</ele>
   </trkpt>
   <trkpt lat="50.2636650" lon="5.0699740">
    <ele>305</ele>
   </trkpt>
   <trkpt lat="50.2637820" lon="5.0687049">
    <ele>305</ele>
   </trkpt>
   <trkpt lat="50.2642090" lon="5.0644240">
    <ele>307</ele>
   </trkpt>
   <trkpt lat="50.2642850" lon="5.0640960">
    <ele>307</ele>
   </trkpt>
   <trkpt lat="50.2649470" lon="5.0626540">
    <ele>307</ele>
   </trkpt>
   <trkpt lat="50.2649730" lon="5.0625850">
    <ele>307</ele>
   </trkpt>
   <trkpt lat="50.2654060" lon="5.0614050">
    <ele>307</ele>
   </trkpt>
   <trkpt lat="50.2656310" lon="5.0606220">
    <ele>306</ele>
   </trkpt>
   <trkpt lat="50.2662930" lon="5.0579190">
    <ele>306</ele>
   </trkpt>
   <trkpt lat="50.2664890" lon="5.0570769">
    <ele>305</ele>
   </trkpt>
   <trkpt lat="50.2665200" lon="5.0569440">
    <ele>305</ele>
   </trkpt>
   <trkpt lat="50.2667069" lon="5.0562550">
    <ele>305</ele>
   </trkpt>
   <trkpt lat="50.2672060" lon="5.0550320">
    <ele>304</ele>
   </trkpt>
   <trkpt lat="50.2675490" lon="5.0542080">
    <ele>303</ele>
   </trkpt>
   <trkpt lat="50.2677460" lon="5.0540030">
    <ele>303</ele>
   </trkpt>
   <trkpt lat="50.2678940" lon="5.0539230">
    <ele>302</ele>
   </trkpt>
   <trkpt lat="50.2678510" lon="5.0537990">
    <ele>302</ele>
   </trkpt>
   <trkpt lat="50.2677390" lon="5.0534060">
    <ele>302</ele>
   </trkpt>
   <trkpt lat="50.2676680" lon="5.0530350">
    <ele>302</ele>
   </trkpt>
   <trkpt lat="50.2675720" lon="5.0524680">
    <ele>301</ele>
   </trkpt>
   <trkpt lat="50.2675470" lon="5.0523140">
    <ele>301</ele>
   </trkpt>
   <trkpt lat="50.2674940" lon="5.0519950">
    <ele>301</ele>
   </trkpt>
   <trkpt lat="50.2674800" lon="5.0519130">
    <ele>301</ele>
   </trkpt>
   <trkpt lat="50.2674560" lon="5.0517580">
    <ele>301</ele>
   </trkpt>
   <trkpt lat="50.2674250" lon="5.0515660">
    <ele>301</ele>
   </trkpt>
   <trkpt lat="50.2674230" lon="5.0515540">
    <ele>301</ele>
   </trkpt>
   <trkpt lat="50.2673730" lon="5.0512550">
    <ele>301</ele>
   </trkpt>
   <trkpt lat="50.2671590" lon="5.0499720">
    <ele>300</ele>
   </trkpt>
   <trkpt lat="50.2671360" lon="5.0498340">
    <ele>300</ele>
   </trkpt>
   <trkpt lat="50.2670690" lon="5.0494170">
    <ele>299</ele>
   </trkpt>
   <trkpt lat="50.2670240" lon="5.0491190">
    <ele>299</ele>
   </trkpt>
   <trkpt lat="50.2669930" lon="5.0488670">
    <ele>299</ele>
   </trkpt>
   <trkpt lat="50.2669400" lon="5.0483850">
    <ele>299</ele>
   </trkpt>
   <trkpt lat="50.2668630" lon="5.0473680">
    <ele>298</ele>
   </trkpt>
   <trkpt lat="50.2668600" lon="5.0473220">
    <ele>298</ele>
   </trkpt>
   <trkpt lat="50.2668400" lon="5.0470950">
    <ele>298</ele>
   </trkpt>
   <trkpt lat="50.2668139" lon="5.0467530">
    <ele>297</ele>
   </trkpt>
   <trkpt lat="50.2667680" lon="5.0463490">
    <ele>297</ele>
   </trkpt>
   <trkpt lat="50.2667610" lon="5.0462870">
    <ele>297</ele>
   </trkpt>
   <trkpt lat="50.2667350" lon="5.0460590">
    <ele>296</ele>
   </trkpt>
   <trkpt lat="50.2667260" lon="5.0460040">
    <ele>296</ele>
   </trkpt>
   <trkpt lat="50.2667010" lon="5.0457780">
    <ele>296</ele>
   </trkpt>
   <trkpt lat="50.2666820" lon="5.0456150">
    <ele>296</ele>
   </trkpt>
   <trkpt lat="50.2665710" lon="5.0446510">
    <ele>295</ele>
   </trkpt>
   <trkpt lat="50.2665370" lon="5.0443600">
    <ele>294</ele>
   </trkpt>
   <trkpt lat="50.2664950" lon="5.0439950">
    <ele>294</ele>
   </trkpt>
   <trkpt lat="50.2664040" lon="5.0432040">
    <ele>293</ele>
   </trkpt>
   <trkpt lat="50.2662690" lon="5.0426630">
    <ele>292</ele>
   </trkpt>
   <trkpt lat="50.2660849" lon="5.0422030">
    <ele>291</ele>
   </trkpt>
   <trkpt lat="50.2658340" lon="5.0417810">
    <ele>291</ele>
   </trkpt>
   <trkpt lat="50.2651790" lon="5.0410290">
    <ele>291</ele>
   </trkpt>
   <trkpt lat="50.2649700" lon="5.0407370">
    <ele>291</ele>
   </trkpt>
   <trkpt lat="50.2647170" lon="5.0403000">
    <ele>291</ele>
   </trkpt>
   <trkpt lat="50.2643700" lon="5.0395200">
    <ele>290</ele>
   </trkpt>
   <trkpt lat="50.2639760" lon="5.0385590">
    <ele>290</ele>
   </trkpt>
   <trkpt lat="50.2639220" lon="5.0384350">
    <ele>290</ele>
   </trkpt>
   <trkpt lat="50.2623320" lon="5.0345530">
    <ele>285</ele>
   </trkpt>
   <trkpt lat="50.2616290" lon="5.0326080">
    <ele>282</ele>
   </trkpt>
   <trkpt lat="50.2614360" lon="5.0319070">
    <ele>281</ele>
   </trkpt>
   <trkpt lat="50.2611980" lon="5.0310960">
    <ele>280</ele>
   </trkpt>
   <trkpt lat="50.2616800" lon="5.0306910">
    <ele>281</ele>
   </trkpt>
   <trkpt lat="50.2619110" lon="5.0304080">
    <ele>281</ele>
   </trkpt>
   <trkpt lat="50.2620530" lon="5.0302410">
    <ele>282</ele>
   </trkpt>
   <trkpt lat="50.2624900" lon="5.0296090">
    <ele>283</ele>
   </trkpt>
   <trkpt lat="50.2626520" lon="5.0293450">
    <ele>284</ele>
   </trkpt>
   <trkpt lat="50.2627130" lon="5.0292290">
    <ele>284</ele>
   </trkpt>
   <trkpt lat="50.2628590" lon="5.0288810">
    <ele>284</ele>
   </trkpt>
   <trkpt lat="50.2630210" lon="5.0284950">
    <ele>284</ele>
   </trkpt>
   <trkpt lat="50.2630800" lon="5.0283540">
    <ele>284</ele>
   </trkpt>
   <trkpt lat="50.2631609" lon="5.0281060">
    <ele>284</ele>
   </trkpt>
   <trkpt lat="50.2633570" lon="5.0273310">
    <ele>284</ele>
   </trkpt>
   <trkpt lat="50.2635000" lon="5.0265680">
    <ele>283</ele>
   </trkpt>
   <trkpt lat="50.2635760" lon="5.0259100">
    <ele>283</ele>
   </trkpt>
   <trkpt lat="50.2635980" lon="5.0251950">
    <ele>282</ele>
   </trkpt>
   <trkpt lat="50.2635890" lon="5.0250150">
    <ele>282</ele>
   </trkpt>
   <trkpt lat="50.2635050" lon="5.0241610">
    <ele>281</ele>
   </trkpt>
   <trkpt lat="50.2625220" lon="5.0184730">
    <ele>275</ele>
   </trkpt>
   <trkpt lat="50.2624580" lon="5.0181050">
    <ele>275</ele>
   </trkpt>
   <trkpt lat="50.2619440" lon="5.0151080">
    <ele>276</ele>
   </trkpt>
   <trkpt lat="50.2619160" lon="5.0149700">
    <ele>276</ele>
   </trkpt>
   <trkpt lat="50.2615690" lon="5.0130370">
    <ele>277</ele>
   </trkpt>
   <trkpt lat="50.2614360" lon="5.0120720">
    <ele>277</ele>
   </trkpt>
   <trkpt lat="50.2604660" lon="5.0042120">
    <ele>278</ele>
   </trkpt>
   <trkpt lat="50.2603650" lon="5.0032010">
    <ele>279</ele>
   </trkpt>
   <trkpt lat="50.2603210" lon="5.0024879">
    <ele>279</ele>
   </trkpt>
   <trkpt lat="50.2601870" lon="4.9989980">
    <ele>280</ele>
   </trkpt>
   <trkpt lat="50.2601710" lon="4.9985010">
    <ele>279</ele>
   </trkpt>
   <trkpt lat="50.2599240" lon="4.9920550">
    <ele>268</ele>
   </trkpt>
   <trkpt lat="50.2596780" lon="4.9856080">
    <ele>259</ele>
   </trkpt>
   <trkpt lat="50.2595790" lon="4.9827420">
    <ele>263</ele>
   </trkpt>
   <trkpt lat="50.2595720" lon="4.9825790">
    <ele>263</ele>
   </trkpt>
   <trkpt lat="50.2595680" lon="4.9824560">
    <ele>263</ele>
   </trkpt>
   <trkpt lat="50.2595240" lon="4.9814350">
    <ele>264</ele>
   </trkpt>
   <trkpt lat="50.2595150" lon="4.9812820">
    <ele>264</ele>
   </trkpt>
   <trkpt lat="50.2600900" lon="4.9813820">
    <ele>265</ele>
   </trkpt>
   <trkpt lat="50.2603730" lon="4.9814190">
    <ele>265</ele>
   </trkpt>
   <trkpt lat="50.2608170" lon="4.9813919">
    <ele>266</ele>
   </trkpt>
   <trkpt lat="50.2609890" lon="4.9813370">
    <ele>266</ele>
   </trkpt>
   <trkpt lat="50.2613440" lon="4.9811120">
    <ele>266</ele>
   </trkpt>
   <trkpt lat="50.2613930" lon="4.9810810">
    <ele>266</ele>
   </trkpt>
   <trkpt lat="50.2627230" lon="4.9806490">
    <ele>265</ele>
   </trkpt>
   <trkpt lat="50.2637020" lon="4.9805630">
    <ele>262</ele>
   </trkpt>
   <trkpt lat="50.2639500" lon="4.9805700">
    <ele>261</ele>
   </trkpt>
   <trkpt lat="50.2641820" lon="4.9806020">
    <ele>260</ele>
   </trkpt>
   <trkpt lat="50.2645680" lon="4.9808510">
    <ele>257</ele>
   </trkpt>
   <trkpt lat="50.2647390" lon="4.9808780">
    <ele>256</ele>
   </trkpt>
   <trkpt lat="50.2670990" lon="4.9799960">
    <ele>241</ele>
   </trkpt>
   <trkpt lat="50.2672260" lon="4.9799120">
    <ele>240</ele>
   </trkpt>
   <trkpt lat="50.2672580" lon="4.9800000">
    <ele>240</ele>
   </trkpt>
   <trkpt lat="50.2672830" lon="4.9800600">
    <ele>240</ele>
   </trkpt>
   <trkpt lat="50.2684220" lon="4.9832150">
    <ele>228</ele>
   </trkpt>
   <trkpt lat="50.2698930" lon="4.9852180">
    <ele>217</ele>
   </trkpt>
   <trkpt lat="50.2703010" lon="4.9858480">
    <ele>213</ele>
   </trkpt>
   <trkpt lat="50.2710870" lon="4.9862750">
    <ele>207</ele>
   </trkpt>
   <trkpt lat="50.2712420" lon="4.9863590">
    <ele>206</ele>
   </trkpt>
   <trkpt lat="50.2717460" lon="4.9869180">
    <ele>204</ele>
   </trkpt>
   <trkpt lat="50.2718810" lon="4.9870440">
    <ele>204</ele>
   </trkpt>
   <trkpt lat="50.2720910" lon="4.9871580">
    <ele>203</ele>
   </trkpt>
   <trkpt lat="50.2720910" lon="4.9871900">
    <ele>203</ele>
   </trkpt>
   <trkpt lat="50.2721240" lon="4.9872249">
    <ele>203</ele>
   </trkpt>
   <trkpt lat="50.2721500" lon="4.9871570">
    <ele>203</ele>
   </trkpt>
   <trkpt lat="50.2723749" lon="4.9870620">
    <ele>202</ele>
   </trkpt>
   <trkpt lat="50.2725870" lon="4.9870190">
    <ele>202</ele>
   </trkpt>
   <trkpt lat="50.2731900" lon="4.9870260">
    <ele>202</ele>
   </trkpt>
   <trkpt lat="50.2741960" lon="4.9868690">
    <ele>203</ele>
   </trkpt>
   <trkpt lat="50.2739470" lon="4.9867169">
    <ele>204</ele>
   </trkpt>
   <trkpt lat="50.2731740" lon="4.9862450">
    <ele>203</ele>
   </trkpt>
   <trkpt lat="50.2728860" lon="4.9860470">
    <ele>203</ele>
   </trkpt>
   <trkpt lat="50.2725579" lon="4.9857630">
    <ele>202</ele>
   </trkpt>
   <trkpt lat="50.2723880" lon="4.9855260">
    <ele>202</ele>
   </trkpt>
   <trkpt lat="50.2718340" lon="4.9844739">
    <ele>203</ele>
   </trkpt>
   <trkpt lat="50.2716920" lon="4.9841100">
    <ele>204</ele>
   </trkpt>
   <trkpt lat="50.2716500" lon="4.9838790">
    <ele>204</ele>
   </trkpt>
   <trkpt lat="50.2716250" lon="4.9834379">
    <ele>204</ele>
   </trkpt>
   <trkpt lat="50.2716480" lon="4.9830400">
    <ele>205</ele>
   </trkpt>
   <trkpt lat="50.2718260" lon="4.9819210">
    <ele>203</ele>
   </trkpt>
   <trkpt lat="50.2718860" lon="4.9812210">
    <ele>201</ele>
   </trkpt>
   <trkpt lat="50.2718720" lon="4.9799160">
    <ele>199</ele>
   </trkpt>
   <trkpt lat="50.2719020" lon="4.9794409">
    <ele>197</ele>
   </trkpt>
   <trkpt lat="50.2719790" lon="4.9790960">
    <ele>197</ele>
   </trkpt>
   <trkpt lat="50.2725129" lon="4.9778880">
    <ele>193</ele>
   </trkpt>
   <trkpt lat="50.2726309" lon="4.9774490">
    <ele>192</ele>
   </trkpt>
   <trkpt lat="50.2727140" lon="4.9766940">
    <ele>191</ele>
   </trkpt>
   <trkpt lat="50.2727660" lon="4.9753250">
    <ele>189</ele>
   </trkpt>
   <trkpt lat="50.2728330" lon="4.9748000">
    <ele>188</ele>
   </trkpt>
   <trkpt lat="50.2729280" lon="4.9736950">
    <ele>187</ele>
   </trkpt>
   <trkpt lat="50.2729580" lon="4.9732320">
    <ele>187</ele>
   </trkpt>
   <trkpt lat="50.2729460" lon="4.9730750">
    <ele>187</ele>
   </trkpt>
   <trkpt lat="50.2728370" lon="4.9727340">
    <ele>187</ele>
   </trkpt>
   <trkpt lat="50.2726330" lon="4.9724520">
    <ele>186</ele>
   </trkpt>
   <trkpt lat="50.2722210" lon="4.9719950">
    <ele>186</ele>
   </trkpt>
   <trkpt lat="50.2720399" lon="4.9716509">
    <ele>186</ele>
   </trkpt>
   <trkpt lat="50.2719830" lon="4.9714770">
    <ele>186</ele>
   </trkpt>
   <trkpt lat="50.2719260" lon="4.9711010">
    <ele>186</ele>
   </trkpt>
   <trkpt lat="50.2718850" lon="4.9703929">
    <ele>185</ele>
   </trkpt>
   <trkpt lat="50.2719130" lon="4.9687180">
    <ele>184</ele>
   </trkpt>
   <trkpt lat="50.2719600" lon="4.9683010">
    <ele>184</ele>
   </trkpt>
   <trkpt lat="50.2720730" lon="4.9677270">
    <ele>184</ele>
   </trkpt>
   <trkpt lat="50.2722539" lon="4.9670490">
    <ele>183</ele>
   </trkpt>
   <trkpt lat="50.2725060" lon="4.9662660">
    <ele>183</ele>
   </trkpt>
   <trkpt lat="50.2725700" lon="4.9658910">
    <ele>183</ele>
   </trkpt>
   <trkpt lat="50.2725520" lon="4.9653770">
    <ele>182</ele>
   </trkpt>
   <trkpt lat="50.2722220" lon="4.9633190">
    <ele>181</ele>
   </trkpt>
   <trkpt lat="50.2722130" lon="4.9630270">
    <ele>181</ele>
   </trkpt>
   <trkpt lat="50.2722690" lon="4.9626930">
    <ele>181</ele>
   </trkpt>
   <trkpt lat="50.2723200" lon="4.9625400">
    <ele>181</ele>
   </trkpt>
   <trkpt lat="50.2724360" lon="4.9623770">
    <ele>181</ele>
   </trkpt>
   <trkpt lat="50.2727480" lon="4.9622250">
    <ele>181</ele>
   </trkpt>
   <trkpt lat="50.2731480" lon="4.9621320">
    <ele>180</ele>
   </trkpt>
   <trkpt lat="50.2733750" lon="4.9619570">
    <ele>179</ele>
   </trkpt>
   <trkpt lat="50.2735870" lon="4.9616950">
    <ele>178</ele>
   </trkpt>
   <trkpt lat="50.2737050" lon="4.9614910">
    <ele>178</ele>
   </trkpt>
   <trkpt lat="50.2737580" lon="4.9613580">
    <ele>178</ele>
   </trkpt>
   <trkpt lat="50.2738170" lon="4.9610980">
    <ele>177</ele>
   </trkpt>
   <trkpt lat="50.2738260" lon="4.9607230">
    <ele>176</ele>
   </trkpt>
   <trkpt lat="50.2737980" lon="4.9601070">
    <ele>175</ele>
   </trkpt>
   <trkpt lat="50.2737690" lon="4.9596110">
    <ele>174</ele>
   </trkpt>
   <trkpt lat="50.2737089" lon="4.9591570">
    <ele>174</ele>
   </trkpt>
   <trkpt lat="50.2736090" lon="4.9588820">
    <ele>173</ele>
   </trkpt>
   <trkpt lat="50.2733450" lon="4.9584860">
    <ele>172</ele>
   </trkpt>
   <trkpt lat="50.2729540" lon="4.9578030">
    <ele>171</ele>
   </trkpt>
   <trkpt lat="50.2728560" lon="4.9574310">
    <ele>170</ele>
   </trkpt>
   <trkpt lat="50.2728020" lon="4.9570720">
    <ele>170</ele>
   </trkpt>
   <trkpt lat="50.2728170" lon="4.9567590">
    <ele>170</ele>
   </trkpt>
   <trkpt lat="50.2728910" lon="4.9563819">
    <ele>170</ele>
   </trkpt>
   <trkpt lat="50.2731420" lon="4.9556600">
    <ele>170</ele>
   </trkpt>
   <trkpt lat="50.2731590" lon="4.9555210">
    <ele>170</ele>
   </trkpt>
   <trkpt lat="50.2730330" lon="4.9547470">
    <ele>170</ele>
   </trkpt>
   <trkpt lat="50.2730109" lon="4.9545250">
    <ele>170</ele>
   </trkpt>
   <trkpt lat="50.2730240" lon="4.9542640">
    <ele>170</ele>
   </trkpt>
   <trkpt lat="50.2730910" lon="4.9540620">
    <ele>170</ele>
   </trkpt>
   <trkpt lat="50.2732260" lon="4.9538100">
    <ele>170</ele>
   </trkpt>
   <trkpt lat="50.2733180" lon="4.9537140">
    <ele>169</ele>
   </trkpt>
   <trkpt lat="50.2735140" lon="4.9536090">
    <ele>169</ele>
   </trkpt>
   <trkpt lat="50.2736520" lon="4.9535850">
    <ele>169</ele>
   </trkpt>
   <trkpt lat="50.2739199" lon="4.9536809">
    <ele>169</ele>
   </trkpt>
   <trkpt lat="50.2743520" lon="4.9540940">
    <ele>169</ele>
   </trkpt>
   <trkpt lat="50.2746370" lon="4.9542480">
    <ele>169</ele>
   </trkpt>
   <trkpt lat="50.2750440" lon="4.9542550">
    <ele>169</ele>
   </trkpt>
   <trkpt lat="50.2751710" lon="4.9541620">
    <ele>169</ele>
   </trkpt>
   <trkpt lat="50.2753120" lon="4.9538510">
    <ele>169</ele>
   </trkpt>
   <trkpt lat="50.2754160" lon="4.9535230">
    <ele>169</ele>
   </trkpt>
   <trkpt lat="50.2754730" lon="4.9531640">
    <ele>169</ele>
   </trkpt>
   <trkpt lat="50.2754660" lon="4.9528940">
    <ele>169</ele>
   </trkpt>
   <trkpt lat="50.2753630" lon="4.9525100">
    <ele>169</ele>
   </trkpt>
   <trkpt lat="50.2751329" lon="4.9521430">
    <ele>169</ele>
   </trkpt>
   <trkpt lat="50.2749460" lon="4.9519190">
    <ele>169</ele>
   </trkpt>
   <trkpt lat="50.2748610" lon="4.9517749">
    <ele>169</ele>
   </trkpt>
   <trkpt lat="50.2746330" lon="4.9512310">
    <ele>169</ele>
   </trkpt>
   <trkpt lat="50.2742740" lon="4.9502060">
    <ele>167</ele>
   </trkpt>
   <trkpt lat="50.2741320" lon="4.9498490">
    <ele>167</ele>
   </trkpt>
   <trkpt lat="50.2740630" lon="4.9495670">
    <ele>166</ele>
   </trkpt>
   <trkpt lat="50.2740400" lon="4.9492350">
    <ele>166</ele>
   </trkpt>
   <trkpt lat="50.2740540" lon="4.9490100">
    <ele>165</ele>
   </trkpt>
   <trkpt lat="50.2741000" lon="4.9486679">
    <ele>165</ele>
   </trkpt>
   <trkpt lat="50.2742040" lon="4.9482510">
    <ele>163</ele>
   </trkpt>
   <trkpt lat="50.2743200" lon="4.9480030">
    <ele>162</ele>
   </trkpt>
   <trkpt lat="50.2745520" lon="4.9476540">
    <ele>160</ele>
   </trkpt>
   <trkpt lat="50.2746830" lon="4.9474010">
    <ele>159</ele>
   </trkpt>
   <trkpt lat="50.2747220" lon="4.9471730">
    <ele>158</ele>
   </trkpt>
   <trkpt lat="50.2746930" lon="4.9468690">
    <ele>157</ele>
   </trkpt>
   <trkpt lat="50.2746590" lon="4.9466860">
    <ele>156</ele>
   </trkpt>
   <trkpt lat="50.2745620" lon="4.9462670">
    <ele>154</ele>
   </trkpt>
   <trkpt lat="50.2745640" lon="4.9461840">
    <ele>154</ele>
   </trkpt>
   <trkpt lat="50.2746760" lon="4.9461330">
    <ele>154</ele>
   </trkpt>
   <trkpt lat="50.2750270" lon="4.9461520">
    <ele>155</ele>
   </trkpt>
   <trkpt lat="50.2753159" lon="4.9461250">
    <ele>155</ele>
   </trkpt>
   <trkpt lat="50.2754509" lon="4.9460550">
    <ele>155</ele>
   </trkpt>
   <trkpt lat="50.2756900" lon="4.9457910">
    <ele>156</ele>
   </trkpt>
   <trkpt lat="50.2758410" lon="4.9455230">
    <ele>156</ele>
   </trkpt>
   <trkpt lat="50.2758890" lon="4.9453440">
    <ele>156</ele>
   </trkpt>
   <trkpt lat="50.2758930" lon="4.9451420">
    <ele>156</ele>
   </trkpt>
   <trkpt lat="50.2758210" lon="4.9450139">
    <ele>156</ele>
   </trkpt>
   <trkpt lat="50.2755250" lon="4.9448120">
    <ele>157</ele>
   </trkpt>
   <trkpt lat="50.2753180" lon="4.9446030">
    <ele>157</ele>
   </trkpt>
   <trkpt lat="50.2752849" lon="4.9444540">
    <ele>158</ele>
   </trkpt>
   <trkpt lat="50.2752790" lon="4.9442660">
    <ele>158</ele>
   </trkpt>
   <trkpt lat="50.2753310" lon="4.9439040">
    <ele>158</ele>
   </trkpt>
   <trkpt lat="50.2756690" lon="4.9427470">
    <ele>160</ele>
   </trkpt>
   <trkpt lat="50.2757070" lon="4.9424089">
    <ele>160</ele>
   </trkpt>
   <trkpt lat="50.2756820" lon="4.9420400">
    <ele>160</ele>
   </trkpt>
   <trkpt lat="50.2756479" lon="4.9418760">
    <ele>160</ele>
   </trkpt>
   <trkpt lat="50.2755110" lon="4.9416130">
    <ele>160</ele>
   </trkpt>
   <trkpt lat="50.2750850" lon="4.9411560">
    <ele>160</ele>
   </trkpt>
   <trkpt lat="50.2749640" lon="4.9409370">
    <ele>160</ele>
   </trkpt>
   <trkpt lat="50.2749180" lon="4.9405700">
    <ele>160</ele>
   </trkpt>
   <trkpt lat="50.2749310" lon="4.9392620">
    <ele>159</ele>
   </trkpt>
   <trkpt lat="50.2749040" lon="4.9391090">
    <ele>159</ele>
   </trkpt>
   <trkpt lat="50.2746780" lon="4.9384900">
    <ele>158</ele>
   </trkpt>
   <trkpt lat="50.2746550" lon="4.9383090">
    <ele>158</ele>
   </trkpt>
   <trkpt lat="50.2746640" lon="4.9380420">
    <ele>157</ele>
   </trkpt>
   <trkpt lat="50.2747800" lon="4.9369820">
    <ele>155</ele>
   </trkpt>
   <trkpt lat="50.2747820" lon="4.9366920">
    <ele>155</ele>
   </trkpt>
   <trkpt lat="50.2747090" lon="4.9358700">
    <ele>153</ele>
   </trkpt>
   <trkpt lat="50.2747880" lon="4.9349460">
    <ele>151</ele>
   </trkpt>
   <trkpt lat="50.2747389" lon="4.9346200">
    <ele>149</ele>
   </trkpt>
   <trkpt lat="50.2747490" lon="4.9338410">
    <ele>146</ele>
   </trkpt>
   <trkpt lat="50.2746880" lon="4.9327070">
    <ele>142</ele>
   </trkpt>
   <trkpt lat="50.2749210" lon="4.9311049">
    <ele>138</ele>
   </trkpt>
   <trkpt lat="50.2749460" lon="4.9305210">
    <ele>136</ele>
   </trkpt>
   <trkpt lat="50.2749180" lon="4.9303120">
    <ele>136</ele>
   </trkpt>
   <trkpt lat="50.2747810" lon="4.9298090">
    <ele>135</ele>
   </trkpt>
   <trkpt lat="50.2746360" lon="4.9295710">
    <ele>134</ele>
   </trkpt>
   <trkpt lat="50.2744810" lon="4.9293710">
    <ele>133</ele>
   </trkpt>
   <trkpt lat="50.2740930" lon="4.9289830">
    <ele>132</ele>
   </trkpt>
   <trkpt lat="50.2730410" lon="4.9278310">
    <ele>129</ele>
   </trkpt>
   <trkpt lat="50.2729400" lon="4.9276660">
    <ele>129</ele>
   </trkpt>
   <trkpt lat="50.2729120" lon="4.9275180">
    <ele>129</ele>
   </trkpt>
   <trkpt lat="50.2729170" lon="4.9263610">
    <ele>128</ele>
   </trkpt>
   <trkpt lat="50.2734780" lon="4.9229230">
    <ele>128</ele>
   </trkpt>
   <trkpt lat="50.2735640" lon="4.9218080">
    <ele>126</ele>
   </trkpt>
   <trkpt lat="50.2735310" lon="4.9196210">
    <ele>120</ele>
   </trkpt>
   <trkpt lat="50.2735040" lon="4.9193670">
    <ele>120</ele>
   </trkpt>
   <trkpt lat="50.2734130" lon="4.9191070">
    <ele>120</ele>
   </trkpt>
   <trkpt lat="50.2732970" lon="4.9189390">
    <ele>119</ele>
   </trkpt>
   <trkpt lat="50.2731670" lon="4.9188180">
    <ele>119</ele>
   </trkpt>
   <trkpt lat="50.2730100" lon="4.9187250">
    <ele>118</ele>
   </trkpt>
   <trkpt lat="50.2722730" lon="4.9184550">
    <ele>116</ele>
   </trkpt>
   <trkpt lat="50.2715580" lon="4.9180690">
    <ele>114</ele>
   </trkpt>
   <trkpt lat="50.2709180" lon="4.9175690">
    <ele>112</ele>
   </trkpt>
   <trkpt lat="50.2704820" lon="4.9174390">
    <ele>110</ele>
   </trkpt>
   <trkpt lat="50.2704000" lon="4.9172540">
    <ele>110</ele>
   </trkpt>
   <trkpt lat="50.2703850" lon="4.9171200">
    <ele>110</ele>
   </trkpt>
   <trkpt lat="50.2704340" lon="4.9162490">
    <ele>109</ele>
   </trkpt>
   <trkpt lat="50.2704049" lon="4.9155740">
    <ele>108</ele>
   </trkpt>
   <trkpt lat="50.2703620" lon="4.9152610">
    <ele>107</ele>
   </trkpt>
   <trkpt lat="50.2702720" lon="4.9149860">
    <ele>107</ele>
   </trkpt>
   <trkpt lat="50.2700610" lon="4.9145839">
    <ele>106</ele>
   </trkpt>
   <trkpt lat="50.2699890" lon="4.9143780">
    <ele>106</ele>
   </trkpt>
   <trkpt lat="50.2699680" lon="4.9140160">
    <ele>107</ele>
   </trkpt>
   <trkpt lat="50.2699390" lon="4.9135380">
    <ele>107</ele>
   </trkpt>
   <trkpt lat="50.2698840" lon="4.9131900">
    <ele>107</ele>
   </trkpt>
   <trkpt lat="50.2695440" lon="4.9117010">
    <ele>107</ele>
   </trkpt>
   <trkpt lat="50.2694660" lon="4.9111010">
    <ele>106</ele>
   </trkpt>
   <trkpt lat="50.2693930" lon="4.9103500">
    <ele>106</ele>
   </trkpt>
   <trkpt lat="50.2693670" lon="4.9089260">
    <ele>103</ele>
   </trkpt>
   <trkpt lat="50.2693230" lon="4.9076060">
    <ele>99</ele>
   </trkpt>
   <trkpt lat="50.2693360" lon="4.9074479">
    <ele>98</ele>
   </trkpt>
   <trkpt lat="50.2693410" lon="4.9074080">
    <ele>98</ele>
   </trkpt>
   <trkpt lat="50.2693680" lon="4.9071670">
    <ele>97</ele>
   </trkpt>
   <trkpt lat="50.2693500" lon="4.9071700">
    <ele>97</ele>
   </trkpt>
   <trkpt lat="50.2693280" lon="4.9071630">
    <ele>97</ele>
   </trkpt>
   <trkpt lat="50.2693080" lon="4.9071520">
    <ele>97</ele>
   </trkpt>
   <trkpt lat="50.2692870" lon="4.9071320">
    <ele>97</ele>
   </trkpt>
   <trkpt lat="50.2692690" lon="4.9071100">
    <ele>96</ele>
   </trkpt>
   <trkpt lat="50.2692539" lon="4.9070870">
    <ele>96</ele>
   </trkpt>
   <trkpt lat="50.2691250" lon="4.9069110">
    <ele>95</ele>
   </trkpt>
   <trkpt lat="50.2687320" lon="4.9064600">
    <ele>94</ele>
   </trkpt>
   <trkpt lat="50.2687180" lon="4.9064360">
    <ele>94</ele>
   </trkpt>
   <trkpt lat="50.2686220" lon="4.9061180">
    <ele>93</ele>
   </trkpt>
   <trkpt lat="50.2686149" lon="4.9057310">
    <ele>92</ele>
   </trkpt>
   <trkpt lat="50.2686149" lon="4.9057120">
    <ele>92</ele>
   </trkpt>
   <trkpt lat="50.2685540" lon="4.9055620">
    <ele>92</ele>
   </trkpt>
   <trkpt lat="50.2684740" lon="4.9056280">
    <ele>91</ele>
   </trkpt>
   <trkpt lat="50.2682860" lon="4.9057910">
    <ele>91</ele>
   </trkpt>
   <trkpt lat="50.2682060" lon="4.9058490">
    <ele>90</ele>
   </trkpt>
   <trkpt lat="50.2678700" lon="4.9060800">
    <ele>89</ele>
   </trkpt>
   <trkpt lat="50.2676210" lon="4.9062440">
    <ele>89</ele>
   </trkpt>
   <trkpt lat="50.2675500" lon="4.9062780">
    <ele>89</ele>
   </trkpt>
   <trkpt lat="50.2674630" lon="4.9063140">
    <ele>89</ele>
   </trkpt>
   <trkpt lat="50.2667860" lon="4.9065910">
    <ele>89</ele>
   </trkpt>
   <trkpt lat="50.2667500" lon="4.9066120">
    <ele>89</ele>
   </trkpt>
   <trkpt lat="50.2666080" lon="4.9066760">
    <ele>89</ele>
   </trkpt>
   <trkpt lat="50.2647040" lon="4.9075350">
    <ele>89</ele>
   </trkpt>
   <trkpt lat="50.2645860" lon="4.9076160">
    <ele>89</ele>
   </trkpt>
   <trkpt lat="50.2637090" lon="4.9080710">
    <ele>89</ele>
   </trkpt>
   <trkpt lat="50.2635580" lon="4.9082020">
    <ele>89</ele>
   </trkpt>
   <trkpt lat="50.2628709" lon="4.9087980">
    <ele>88</ele>
   </trkpt>
   <trkpt lat="50.2626570" lon="4.9090390">
    <ele>88</ele>
   </trkpt>
   <trkpt lat="50.2623390" lon="4.9095280">
    <ele>88</ele>
   </trkpt>
   <trkpt lat="50.2622810" lon="4.9095750">
    <ele>88</ele>
   </trkpt>
   <trkpt lat="50.2621980" lon="4.9097330">
    <ele>88</ele>
   </trkpt>
   <trkpt lat="50.2621490" lon="4.9097450">
    <ele>88</ele>
   </trkpt>
   <trkpt lat="50.2617700" lon="4.9104279">
    <ele>88</ele>
   </trkpt>
   <trkpt lat="50.2615450" lon="4.9107810">
    <ele>88</ele>
   </trkpt>
   <trkpt lat="50.2609330" lon="4.9115719">
    <ele>88</ele>
   </trkpt>
   <trkpt lat="50.2607820" lon="4.9117480">
    <ele>88</ele>
   </trkpt>
   <trkpt lat="50.2606800" lon="4.9118330">
    <ele>88</ele>
   </trkpt>
   <trkpt lat="50.2605790" lon="4.9119170">
    <ele>88</ele>
   </trkpt>
   <trkpt lat="50.2602570" lon="4.9120860">
    <ele>88</ele>
   </trkpt>
   <trkpt lat="50.2588520" lon="4.9125770">
    <ele>88</ele>
   </trkpt>
   <trkpt lat="50.2583849" lon="4.9127370">
    <ele>88</ele>
   </trkpt>
   <trkpt lat="50.2573719" lon="4.9130400">
    <ele>88</ele>
   </trkpt>
   <trkpt lat="50.2570150" lon="4.9131669">
    <ele>88</ele>
   </trkpt>
   <trkpt lat="50.2563920" lon="4.9133360">
    <ele>88</ele>
   </trkpt>
   <trkpt lat="50.2559650" lon="4.9134960">
    <ele>88</ele>
   </trkpt>
   <trkpt lat="50.2557649" lon="4.9136140">
    <ele>88</ele>
   </trkpt>
   <trkpt lat="50.2551050" lon="4.9141050">
    <ele>88</ele>
   </trkpt>
   <trkpt lat="50.2538989" lon="4.9150610">
    <ele>88</ele>
   </trkpt>
   <trkpt lat="50.2537390" lon="4.9151790">
    <ele>88</ele>
   </trkpt>
   <trkpt lat="50.2532810" lon="4.9156090">
    <ele>88</ele>
   </trkpt>
   <trkpt lat="50.2527070" lon="4.9160740">
    <ele>88</ele>
   </trkpt>
   <trkpt lat="50.2526850" lon="4.9162210">
    <ele>88</ele>
   </trkpt>
   <trkpt lat="50.2522910" lon="4.9165750">
    <ele>88</ele>
   </trkpt>
   <trkpt lat="50.2520809" lon="4.9168500">
    <ele>88</ele>
   </trkpt>
   <trkpt lat="50.2507210" lon="4.9182670">
    <ele>89</ele>
   </trkpt>
   <trkpt lat="50.2500519" lon="4.9188840">
    <ele>89</ele>
   </trkpt>
   <trkpt lat="50.2501869" lon="4.9187860">
    <ele>90</ele>
   </trkpt>
   <trkpt lat="50.2503050" lon="4.9187960">
    <ele>90</ele>
   </trkpt>
   <trkpt lat="50.2497810" lon="4.9192060">
    <ele>91</ele>
   </trkpt>
   <trkpt lat="50.2494720" lon="4.9195220">
    <ele>92</ele>
   </trkpt>
   <trkpt lat="50.2490410" lon="4.9200250">
    <ele>92</ele>
   </trkpt>
   <trkpt lat="50.2488900" lon="4.9202120">
    <ele>93</ele>
   </trkpt>
   <trkpt lat="50.2485890" lon="4.9204990">
    <ele>93</ele>
   </trkpt>
   <trkpt lat="50.2482720" lon="4.9206820">
    <ele>94</ele>
   </trkpt>
   <trkpt lat="50.2482410" lon="4.9206970">
    <ele>94</ele>
   </trkpt>
   <trkpt lat="50.2478120" lon="4.9208730">
    <ele>95</ele>
   </trkpt>
   <trkpt lat="50.2475680" lon="4.9209710">
    <ele>95</ele>
   </trkpt>
   <trkpt lat="50.2473800" lon="4.9210570">
    <ele>95</ele>
   </trkpt>
   <trkpt lat="50.2470650" lon="4.9211610">
    <ele>95</ele>
   </trkpt>
   <trkpt lat="50.2454630" lon="4.9211550">
    <ele>94</ele>
   </trkpt>
   <trkpt lat="50.2454240" lon="4.9211420">
    <ele>93</ele>
   </trkpt>
   <trkpt lat="50.2449740" lon="4.9209970">
    <ele>93</ele>
   </trkpt>
   <trkpt lat="50.2447760" lon="4.9209370">
    <ele>92</ele>
   </trkpt>
   <trkpt lat="50.2446640" lon="4.9209310">
    <ele>92</ele>
   </trkpt>
   <trkpt lat="50.2443610" lon="4.9210380">
    <ele>92</ele>
   </trkpt>
   <trkpt lat="50.2442870" lon="4.9210940">
    <ele>92</ele>
   </trkpt>
   <trkpt lat="50.2439410" lon="4.9212390">
    <ele>91</ele>
   </trkpt>
   <trkpt lat="50.2436340" lon="4.9212730">
    <ele>91</ele>
   </trkpt>
   <trkpt lat="50.2435050" lon="4.9212960">
    <ele>91</ele>
   </trkpt>
   <trkpt lat="50.2432740" lon="4.9212380">
    <ele>91</ele>
   </trkpt>
   <trkpt lat="50.2431240" lon="4.9211630">
    <ele>91</ele>
   </trkpt>
   <trkpt lat="50.2429950" lon="4.9210980">
    <ele>91</ele>
   </trkpt>
   <trkpt lat="50.2427380" lon="4.9208950">
    <ele>91</ele>
   </trkpt>
   <trkpt lat="50.2413560" lon="4.9195160">
    <ele>95</ele>
   </trkpt>
   <trkpt lat="50.2411839" lon="4.9193780">
    <ele>95</ele>
   </trkpt>
   <trkpt lat="50.2408760" lon="4.9192330">
    <ele>96</ele>
   </trkpt>
   <trkpt lat="50.2402980" lon="4.9189790">
    <ele>98</ele>
   </trkpt>
   <trkpt lat="50.2401860" lon="4.9188750">
    <ele>99</ele>
   </trkpt>
   <trkpt lat="50.2399200" lon="4.9186230">
    <ele>100</ele>
   </trkpt>
   <trkpt lat="50.2396750" lon="4.9182790">
    <ele>101</ele>
   </trkpt>
   <trkpt lat="50.2394150" lon="4.9177670">
    <ele>102</ele>
   </trkpt>
   <trkpt lat="50.2391530" lon="4.9171070">
    <ele>102</ele>
   </trkpt>
   <trkpt lat="50.2391239" lon="4.9169600">
    <ele>102</ele>
   </trkpt>
   <trkpt lat="50.2388199" lon="4.9146510">
    <ele>101</ele>
   </trkpt>
   <trkpt lat="50.2387790" lon="4.9143430">
    <ele>101</ele>
   </trkpt>
   <trkpt lat="50.2386310" lon="4.9132250">
    <ele>101</ele>
   </trkpt>
   <trkpt lat="50.2383640" lon="4.9111920">
    <ele>101</ele>
   </trkpt>
   <trkpt lat="50.2383550" lon="4.9111209">
    <ele>100</ele>
   </trkpt>
   <trkpt lat="50.2382270" lon="4.9102380">
    <ele>99</ele>
   </trkpt>
   <trkpt lat="50.2381650" lon="4.9100570">
    <ele>99</ele>
   </trkpt>
   <trkpt lat="50.2380450" lon="4.9096860">
    <ele>99</ele>
   </trkpt>
   <trkpt lat="50.2380570" lon="4.9096090">
    <ele>99</ele>
   </trkpt>
   <trkpt lat="50.2381720" lon="4.9092909">
    <ele>98</ele>
   </trkpt>
   <trkpt lat="50.2382020" lon="4.9091250">
    <ele>98</ele>
   </trkpt>
   <trkpt lat="50.2382140" lon="4.9090010">
    <ele>98</ele>
   </trkpt>
   <trkpt lat="50.2382560" lon="4.9085880">
    <ele>98</ele>
   </trkpt>
   <trkpt lat="50.2382650" lon="4.9085180">
    <ele>98</ele>
   </trkpt>
   <trkpt lat="50.2382790" lon="4.9084070">
    <ele>97</ele>
   </trkpt>
   <trkpt lat="50.2383460" lon="4.9078130">
    <ele>97</ele>
   </trkpt>
   <trkpt lat="50.2383780" lon="4.9075280">
    <ele>97</ele>
   </trkpt>
   <trkpt lat="50.2384320" lon="4.9070729">
    <ele>96</ele>
   </trkpt>
   <trkpt lat="50.2384950" lon="4.9064870">
    <ele>97</ele>
   </trkpt>
   <trkpt lat="50.2385920" lon="4.9059470">
    <ele>99</ele>
   </trkpt>
   <trkpt lat="50.2386160" lon="4.9058040">
    <ele>99</ele>
   </trkpt>
   <trkpt lat="50.2387090" lon="4.9050540">
    <ele>102</ele>
   </trkpt>
   <trkpt lat="50.2389409" lon="4.9032080">
    <ele>107</ele>
   </trkpt>
   <trkpt lat="50.2389350" lon="4.9027340">
    <ele>109</ele>
   </trkpt>
   <trkpt lat="50.2388640" lon="4.9020130">
    <ele>110</ele>
   </trkpt>
   <trkpt lat="50.2387810" lon="4.9014740">
    <ele>112</ele>
   </trkpt>
   <trkpt lat="50.2385970" lon="4.9006700">
    <ele>115</ele>
   </trkpt>
   <trkpt lat="50.2383680" lon="4.8998950">
    <ele>118</ele>
   </trkpt>
   <trkpt lat="50.2376450" lon="4.8979990">
    <ele>126</ele>
   </trkpt>
   <trkpt lat="50.2370380" lon="4.8964540">
    <ele>134</ele>
   </trkpt>
   <trkpt lat="50.2367820" lon="4.8957780">
    <ele>136</ele>
   </trkpt>
   <trkpt lat="50.2363730" lon="4.8942140">
    <ele>142</ele>
   </trkpt>
   <trkpt lat="50.2356580" lon="4.8927280">
    <ele>146</ele>
   </trkpt>
   <trkpt lat="50.2354940" lon="4.8924800">
    <ele>147</ele>
   </trkpt>
   <trkpt lat="50.2350930" lon="4.8920360">
    <ele>149</ele>
   </trkpt>
   <trkpt lat="50.2347870" lon="4.8919210">
    <ele>150</ele>
   </trkpt>
   <trkpt lat="50.2343490" lon="4.8919270">
    <ele>152</ele>
   </trkpt>
   <trkpt lat="50.2342260" lon="4.8918730">
    <ele>152</ele>
   </trkpt>
   <trkpt lat="50.2336380" lon="4.8915010">
    <ele>155</ele>
   </trkpt>
   <trkpt lat="50.2331310" lon="4.8912509">
    <ele>157</ele>
   </trkpt>
   <trkpt lat="50.2327700" lon="4.8909390">
    <ele>157</ele>
   </trkpt>
   <trkpt lat="50.2324200" lon="4.8906870">
    <ele>158</ele>
   </trkpt>
   <trkpt lat="50.2321800" lon="4.8905950">
    <ele>158</ele>
   </trkpt>
   <trkpt lat="50.2319530" lon="4.8905530">
    <ele>158</ele>
   </trkpt>
   <trkpt lat="50.2316230" lon="4.8905480">
    <ele>158</ele>
   </trkpt>
   <trkpt lat="50.2313560" lon="4.8906320">
    <ele>159</ele>
   </trkpt>
   <trkpt lat="50.2311470" lon="4.8907760">
    <ele>160</ele>
   </trkpt>
   <trkpt lat="50.2308250" lon="4.8910990">
    <ele>162</ele>
   </trkpt>
   <trkpt lat="50.2305769" lon="4.8912620">
    <ele>163</ele>
   </trkpt>
   <trkpt lat="50.2298700" lon="4.8913080">
    <ele>165</ele>
   </trkpt>
   <trkpt lat="50.2296040" lon="4.8914350">
    <ele>167</ele>
   </trkpt>
   <trkpt lat="50.2295469" lon="4.8913399">
    <ele>168</ele>
   </trkpt>
   <trkpt lat="50.2295060" lon="4.8913730">
    <ele>168</ele>
   </trkpt>
   <trkpt lat="50.2294610" lon="4.8913960">
    <ele>169</ele>
   </trkpt>
   <trkpt lat="50.2294240" lon="4.8914070">
    <ele>169</ele>
   </trkpt>
   <trkpt lat="50.2294610" lon="4.8913960">
    <ele>169</ele>
   </trkpt>
   <trkpt lat="50.2295060" lon="4.8913730">
    <ele>170</ele>
   </trkpt>
   <trkpt lat="50.2295200" lon="4.8915080">
    <ele>170</ele>
   </trkpt>
   <trkpt lat="50.2280660" lon="4.8931480">
    <ele>184</ele>
   </trkpt>
   <trkpt lat="50.2279030" lon="4.8932880">
    <ele>185</ele>
   </trkpt>
   <trkpt lat="50.2272440" lon="4.8936190">
    <ele>190</ele>
   </trkpt>
   <trkpt lat="50.2269180" lon="4.8937330">
    <ele>192</ele>
   </trkpt>
   <trkpt lat="50.2264690" lon="4.8937710">
    <ele>193</ele>
   </trkpt>
   <trkpt lat="50.2261219" lon="4.8939060">
    <ele>194</ele>
   </trkpt>
   <trkpt lat="50.2258150" lon="4.8941370">
    <ele>195</ele>
   </trkpt>
   <trkpt lat="50.2248180" lon="4.8951520">
    <ele>198</ele>
   </trkpt>
   <trkpt lat="50.2246750" lon="4.8952770">
    <ele>198</ele>
   </trkpt>
   <trkpt lat="50.2245530" lon="4.8953500">
    <ele>198</ele>
   </trkpt>
   <trkpt lat="50.2244930" lon="4.8953770">
    <ele>198</ele>
   </trkpt>
   <trkpt lat="50.2231140" lon="4.8956920">
    <ele>198</ele>
   </trkpt>
   <trkpt lat="50.2227370" lon="4.8956790">
    <ele>197</ele>
   </trkpt>
   <trkpt lat="50.2222430" lon="4.8955790">
    <ele>197</ele>
   </trkpt>
   <trkpt lat="50.2222269" lon="4.8955740">
    <ele>197</ele>
   </trkpt>
   <trkpt lat="50.2219539" lon="4.8955030">
    <ele>196</ele>
   </trkpt>
   <trkpt lat="50.2215050" lon="4.8953410">
    <ele>197</ele>
   </trkpt>
   <trkpt lat="50.2213930" lon="4.8953040">
    <ele>197</ele>
   </trkpt>
   <trkpt lat="50.2210279" lon="4.8951830">
    <ele>197</ele>
   </trkpt>
   <trkpt lat="50.2207320" lon="4.8951510">
    <ele>198</ele>
   </trkpt>
   <trkpt lat="50.2205990" lon="4.8951460">
    <ele>198</ele>
   </trkpt>
   <trkpt lat="50.2204369" lon="4.8951560">
    <ele>198</ele>
   </trkpt>
   <trkpt lat="50.2201060" lon="4.8952560">
    <ele>199</ele>
   </trkpt>
   <trkpt lat="50.2187030" lon="4.8960250">
    <ele>197</ele>
   </trkpt>
   <trkpt lat="50.2161290" lon="4.8972920">
    <ele>194</ele>
   </trkpt>
   <trkpt lat="50.2123380" lon="4.8988910">
    <ele>190</ele>
   </trkpt>
   <trkpt lat="50.2119580" lon="4.8989310">
    <ele>190</ele>
   </trkpt>
   <trkpt lat="50.2111710" lon="4.8986290">
    <ele>190</ele>
   </trkpt>
   <trkpt lat="50.2102610" lon="4.8980580">
    <ele>189</ele>
   </trkpt>
   <trkpt lat="50.2087540" lon="4.8972270">
    <ele>187</ele>
   </trkpt>
   <trkpt lat="50.2084370" lon="4.8970700">
    <ele>187</ele>
   </trkpt>
   <trkpt lat="50.2080660" lon="4.8969970">
    <ele>186</ele>
   </trkpt>
   <trkpt lat="50.2069339" lon="4.8970130">
    <ele>188</ele>
   </trkpt>
   <trkpt lat="50.2067790" lon="4.8969780">
    <ele>188</ele>
   </trkpt>
   <trkpt lat="50.2061490" lon="4.8968360">
    <ele>189</ele>
   </trkpt>
   <trkpt lat="50.2057659" lon="4.8966420">
    <ele>190</ele>
   </trkpt>
   <trkpt lat="50.2056900" lon="4.8966030">
    <ele>190</ele>
   </trkpt>
   <trkpt lat="50.2055480" lon="4.8965360">
    <ele>191</ele>
   </trkpt>
   <trkpt lat="50.2048360" lon="4.8960180">
    <ele>193</ele>
   </trkpt>
   <trkpt lat="50.2032190" lon="4.8945960">
    <ele>196</ele>
   </trkpt>
   <trkpt lat="50.2030100" lon="4.8941660">
    <ele>197</ele>
   </trkpt>
   <trkpt lat="50.2029000" lon="4.8940120">
    <ele>198</ele>
   </trkpt>
   <trkpt lat="50.2025400" lon="4.8936760">
    <ele>200</ele>
   </trkpt>
   <trkpt lat="50.2022450" lon="4.8934930">
    <ele>201</ele>
   </trkpt>
   <trkpt lat="50.2019900" lon="4.8934440">
    <ele>202</ele>
   </trkpt>
   <trkpt lat="50.2017900" lon="4.8934040">
    <ele>203</ele>
   </trkpt>
   <trkpt lat="50.1999420" lon="4.8934610">
    <ele>214</ele>
   </trkpt>
   <trkpt lat="50.1996080" lon="4.8934689">
    <ele>216</ele>
   </trkpt>
   <trkpt lat="50.1995270" lon="4.8934740">
    <ele>217</ele>
   </trkpt>
   <trkpt lat="50.1993440" lon="4.8935120">
    <ele>218</ele>
   </trkpt>
   <trkpt lat="50.1992460" lon="4.8935900">
    <ele>218</ele>
   </trkpt>
   <trkpt lat="50.1984070" lon="4.8948380">
    <ele>224</ele>
   </trkpt>
   <trkpt lat="50.1983020" lon="4.8949950">
    <ele>224</ele>
   </trkpt>
   <trkpt lat="50.1981180" lon="4.8952830">
    <ele>225</ele>
   </trkpt>
   <trkpt lat="50.1973630" lon="4.8964260">
    <ele>229</ele>
   </trkpt>
   <trkpt lat="50.1969500" lon="4.8969350">
    <ele>230</ele>
   </trkpt>
   <trkpt lat="50.1967060" lon="4.8971400">
    <ele>232</ele>
   </trkpt>
   <trkpt lat="50.1964320" lon="4.8973020">
    <ele>233</ele>
   </trkpt>
   <trkpt lat="50.1956990" lon="4.8974810">
    <ele>237</ele>
   </trkpt>
   <trkpt lat="50.1941470" lon="4.8978620">
    <ele>246</ele>
   </trkpt>
   <trkpt lat="50.1919810" lon="4.8983930">
    <ele>257</ele>
   </trkpt>
   <trkpt lat="50.1878990" lon="4.8993940">
    <ele>269</ele>
   </trkpt>
   <trkpt lat="50.1871640" lon="4.8995730">
    <ele>270</ele>
   </trkpt>
   <trkpt lat="50.1859480" lon="4.8998710">
    <ele>271</ele>
   </trkpt>
   <trkpt lat="50.1815010" lon="4.9009440">
    <ele>277</ele>
   </trkpt>
   <trkpt lat="50.1740790" lon="4.9027660">
    <ele>290</ele>
   </trkpt>
   <trkpt lat="50.1721850" lon="4.9032010">
    <ele>294</ele>
   </trkpt>
   <trkpt lat="50.1756800" lon="4.9100870">
    <ele>296</ele>
   </trkpt>
   <trkpt lat="50.1758010" lon="4.9105060">
    <ele>295</ele>
   </trkpt>
   <trkpt lat="50.1758840" lon="4.9109450">
    <ele>295</ele>
   </trkpt>
   <trkpt lat="50.1766420" lon="4.9154870">
    <ele>293</ele>
   </trkpt>
   <trkpt lat="50.1767770" lon="4.9159550">
    <ele>293</ele>
   </trkpt>
   <trkpt lat="50.1774010" lon="4.9172600">
    <ele>292</ele>
   </trkpt>
   <trkpt lat="50.1781170" lon="4.9187519">
    <ele>292</ele>
   </trkpt>
   <trkpt lat="50.1782500" lon="4.9190960">
    <ele>292</ele>
   </trkpt>
   <trkpt lat="50.1790470" lon="4.9214820">
    <ele>290</ele>
   </trkpt>
   <trkpt lat="50.1793380" lon="4.9221270">
    <ele>289</ele>
   </trkpt>
   <trkpt lat="50.1795640" lon="4.9225220">
    <ele>289</ele>
   </trkpt>
   <trkpt lat="50.1799160" lon="4.9229930">
    <ele>288</ele>
   </trkpt>
   <trkpt lat="50.1799700" lon="4.9230590">
    <ele>287</ele>
   </trkpt>
   <trkpt lat="50.1802760" lon="4.9234310">
    <ele>286</ele>
   </trkpt>
   <trkpt lat="50.1806240" lon="4.9239210">
    <ele>285</ele>
   </trkpt>
   <trkpt lat="50.1813580" lon="4.9254150">
    <ele>283</ele>
   </trkpt>
   <trkpt lat="50.1814950" lon="4.9257380">
    <ele>282</ele>
   </trkpt>
   <trkpt lat="50.1818590" lon="4.9268650">
    <ele>281</ele>
   </trkpt>
   <trkpt lat="50.1825450" lon="4.9291580">
    <ele>283</ele>
   </trkpt>
   <trkpt lat="50.1827479" lon="4.9297990">
    <ele>283</ele>
   </trkpt>
   <trkpt lat="50.1829460" lon="4.9302290">
    <ele>283</ele>
   </trkpt>
   <trkpt lat="50.1829630" lon="4.9302560">
    <ele>283</ele>
   </trkpt>
   <trkpt lat="50.1833610" lon="4.9309000">
    <ele>284</ele>
   </trkpt>
   <trkpt lat="50.1835630" lon="4.9311280">
    <ele>284</ele>
   </trkpt>
   <trkpt lat="50.1874410" lon="4.9350360">
    <ele>276</ele>
   </trkpt>
   <trkpt lat="50.1891940" lon="4.9364810">
    <ele>270</ele>
   </trkpt>
   <trkpt lat="50.1896080" lon="4.9370680">
    <ele>268</ele>
   </trkpt>
   <trkpt lat="50.1917700" lon="4.9403110">
    <ele>260</ele>
   </trkpt>
   <trkpt lat="50.1920430" lon="4.9405979">
    <ele>259</ele>
   </trkpt>
   <trkpt lat="50.1924490" lon="4.9408500">
    <ele>258</ele>
   </trkpt>
   <trkpt lat="50.1926030" lon="4.9409190">
    <ele>258</ele>
   </trkpt>
   <trkpt lat="50.1931770" lon="4.9409710">
    <ele>257</ele>
   </trkpt>
   <trkpt lat="50.1934619" lon="4.9410320">
    <ele>257</ele>
   </trkpt>
   <trkpt lat="50.1940340" lon="4.9412280">
    <ele>256</ele>
   </trkpt>
   <trkpt lat="50.1944080" lon="4.9413980">
    <ele>255</ele>
   </trkpt>
   <trkpt lat="50.1947000" lon="4.9415710">
    <ele>254</ele>
   </trkpt>
   <trkpt lat="50.1948670" lon="4.9417140">
    <ele>253</ele>
   </trkpt>
   <trkpt lat="50.1959350" lon="4.9430680">
    <ele>249</ele>
   </trkpt>
   <trkpt lat="50.1961250" lon="4.9431670">
    <ele>249</ele>
   </trkpt>
   <trkpt lat="50.1972780" lon="4.9431430">
    <ele>247</ele>
   </trkpt>
   <trkpt lat="50.1976960" lon="4.9430930">
    <ele>246</ele>
   </trkpt>
   <trkpt lat="50.1980540" lon="4.9431880">
    <ele>246</ele>
   </trkpt>
   <trkpt lat="50.1990970" lon="4.9436140">
    <ele>244</ele>
   </trkpt>
   <trkpt lat="50.1997120" lon="4.9437020">
    <ele>243</ele>
   </trkpt>
   <trkpt lat="50.2000990" lon="4.9438210">
    <ele>243</ele>
   </trkpt>
   <trkpt lat="50.2004590" lon="4.9441020">
    <ele>242</ele>
   </trkpt>
   <trkpt lat="50.2012829" lon="4.9448880">
    <ele>240</ele>
   </trkpt>
   <trkpt lat="50.2014450" lon="4.9450649">
    <ele>239</ele>
   </trkpt>
   <trkpt lat="50.2016560" lon="4.9454079">
    <ele>239</ele>
   </trkpt>
   <trkpt lat="50.2019450" lon="4.9458810">
    <ele>237</ele>
   </trkpt>
   <trkpt lat="50.2020060" lon="4.9459580">
    <ele>237</ele>
   </trkpt>
   <trkpt lat="50.2022480" lon="4.9461820">
    <ele>236</ele>
   </trkpt>
   <trkpt lat="50.2024100" lon="4.9464460">
    <ele>236</ele>
   </trkpt>
   <trkpt lat="50.2025060" lon="4.9466810">
    <ele>235</ele>
   </trkpt>
   <trkpt lat="50.2029550" lon="4.9475090">
    <ele>232</ele>
   </trkpt>
   <trkpt lat="50.2031890" lon="4.9478940">
    <ele>231</ele>
   </trkpt>
   <trkpt lat="50.2043050" lon="4.9494730">
    <ele>225</ele>
   </trkpt>
   <trkpt lat="50.2045160" lon="4.9499190">
    <ele>223</ele>
   </trkpt>
   <trkpt lat="50.2048500" lon="4.9507630">
    <ele>220</ele>
   </trkpt>
   <trkpt lat="50.2050440" lon="4.9512700">
    <ele>218</ele>
   </trkpt>
   <trkpt lat="50.2054520" lon="4.9522470">
    <ele>215</ele>
   </trkpt>
   <trkpt lat="50.2058890" lon="4.9528480">
    <ele>212</ele>
   </trkpt>
   <trkpt lat="50.2066400" lon="4.9537310">
    <ele>209</ele>
   </trkpt>
   <trkpt lat="50.2068570" lon="4.9540260">
    <ele>208</ele>
   </trkpt>
   <trkpt lat="50.2071340" lon="4.9544810">
    <ele>206</ele>
   </trkpt>
   <trkpt lat="50.2075380" lon="4.9553570">
    <ele>203</ele>
   </trkpt>
   <trkpt lat="50.2076510" lon="4.9557290">
    <ele>202</ele>
   </trkpt>
   <trkpt lat="50.2078560" lon="4.9565930">
    <ele>200</ele>
   </trkpt>
   <trkpt lat="50.2083270" lon="4.9578250">
    <ele>195</ele>
   </trkpt>
   <trkpt lat="50.2089130" lon="4.9592470">
    <ele>188</ele>
   </trkpt>
   <trkpt lat="50.2098640" lon="4.9607710">
    <ele>178</ele>
   </trkpt>
   <trkpt lat="50.2103080" lon="4.9614649">
    <ele>174</ele>
   </trkpt>
   <trkpt lat="50.2104300" lon="4.9615810">
    <ele>173</ele>
   </trkpt>
   <trkpt lat="50.2105720" lon="4.9616470">
    <ele>173</ele>
   </trkpt>
   <trkpt lat="50.2108060" lon="4.9615870">
    <ele>171</ele>
   </trkpt>
   <trkpt lat="50.2114810" lon="4.9610870">
    <ele>167</ele>
   </trkpt>
   <trkpt lat="50.2116100" lon="4.9608450">
    <ele>166</ele>
   </trkpt>
   <trkpt lat="50.2116010" lon="4.9606110">
    <ele>166</ele>
   </trkpt>
   <trkpt lat="50.2113919" lon="4.9601610">
    <ele>165</ele>
   </trkpt>
   <trkpt lat="50.2110330" lon="4.9595520">
    <ele>163</ele>
   </trkpt>
   <trkpt lat="50.2104710" lon="4.9590500">
    <ele>161</ele>
   </trkpt>
   <trkpt lat="50.2100940" lon="4.9585340">
    <ele>159</ele>
   </trkpt>
   <trkpt lat="50.2100220" lon="4.9584730">
    <ele>158</ele>
   </trkpt>
   <trkpt lat="50.2096510" lon="4.9583100">
    <ele>156</ele>
   </trkpt>
   <trkpt lat="50.2095800" lon="4.9582400">
    <ele>155</ele>
   </trkpt>
   <trkpt lat="50.2095270" lon="4.9580380">
    <ele>154</ele>
   </trkpt>
   <trkpt lat="50.2095620" lon="4.9578490">
    <ele>154</ele>
   </trkpt>
   <trkpt lat="50.2096390" lon="4.9577580">
    <ele>153</ele>
   </trkpt>
   <trkpt lat="50.2097080" lon="4.9577289">
    <ele>152</ele>
   </trkpt>
   <trkpt lat="50.2098500" lon="4.9577880">
    <ele>151</ele>
   </trkpt>
   <trkpt lat="50.2103020" lon="4.9583000">
    <ele>148</ele>
   </trkpt>
   <trkpt lat="50.2104440" lon="4.9584430">
    <ele>147</ele>
   </trkpt>
   <trkpt lat="50.2105410" lon="4.9584980">
    <ele>147</ele>
   </trkpt>
   <trkpt lat="50.2126720" lon="4.9591180">
    <ele>136</ele>
   </trkpt>
   <trkpt lat="50.2128510" lon="4.9592290">
    <ele>136</ele>
   </trkpt>
   <trkpt lat="50.2130260" lon="4.9594010">
    <ele>135</ele>
   </trkpt>
   <trkpt lat="50.2132570" lon="4.9597790">
    <ele>134</ele>
   </trkpt>
   <trkpt lat="50.2134510" lon="4.9601540">
    <ele>133</ele>
   </trkpt>
   <trkpt lat="50.2135170" lon="4.9604440">
    <ele>132</ele>
   </trkpt>
   <trkpt lat="50.2134730" lon="4.9607100">
    <ele>132</ele>
   </trkpt>
   <trkpt lat="50.2133920" lon="4.9609070">
    <ele>131</ele>
   </trkpt>
   <trkpt lat="50.2130460" lon="4.9614060">
    <ele>130</ele>
   </trkpt>
   <trkpt lat="50.2124720" lon="4.9619669">
    <ele>128</ele>
   </trkpt>
   <trkpt lat="50.2119890" lon="4.9622560">
    <ele>126</ele>
   </trkpt>
   <trkpt lat="50.2113660" lon="4.9625100">
    <ele>124</ele>
   </trkpt>
   <trkpt lat="50.2113330" lon="4.9625640">
    <ele>124</ele>
   </trkpt>
   <trkpt lat="50.2112640" lon="4.9626750">
    <ele>123</ele>
   </trkpt>
   <trkpt lat="50.2110780" lon="4.9626970">
    <ele>123</ele>
   </trkpt>
   <trkpt lat="50.2109650" lon="4.9627770">
    <ele>122</ele>
   </trkpt>
   <trkpt lat="50.2108780" lon="4.9628570">
    <ele>122</ele>
   </trkpt>
   <trkpt lat="50.2108270" lon="4.9629940">
    <ele>121</ele>
   </trkpt>
   <trkpt lat="50.2108870" lon="4.9630500">
    <ele>121</ele>
   </trkpt>
   <trkpt lat="50.2109790" lon="4.9630530">
    <ele>121</ele>
   </trkpt>
   <trkpt lat="50.2110370" lon="4.9630480">
    <ele>120</ele>
   </trkpt>
   <trkpt lat="50.2111580" lon="4.9630380">
    <ele>120</ele>
   </trkpt>
   <trkpt lat="50.2113790" lon="4.9630190">
    <ele>119</ele>
   </trkpt>
   <trkpt lat="50.2113940" lon="4.9630100">
    <ele>119</ele>
   </trkpt>
   <trkpt lat="50.2113790" lon="4.9630190">
    <ele>119</ele>
   </trkpt>
   <trkpt lat="50.2111580" lon="4.9630380">
    <ele>119</ele>
   </trkpt>
   <trkpt lat="50.2110370" lon="4.9630480">
    <ele>118</ele>
   </trkpt>
   <trkpt lat="50.2109790" lon="4.9630530">
    <ele>118</ele>
   </trkpt>
   <trkpt lat="50.2108870" lon="4.9630500">
    <ele>118</ele>
   </trkpt>
   <trkpt lat="50.2108270" lon="4.9629940">
    <ele>118</ele>
   </trkpt>
   <trkpt lat="50.2108780" lon="4.9628570">
    <ele>117</ele>
   </trkpt>
   <trkpt lat="50.2109650" lon="4.9627770">
    <ele>117</ele>
   </trkpt>
   <trkpt lat="50.2110780" lon="4.9626970">
    <ele>117</ele>
   </trkpt>
   <trkpt lat="50.2112640" lon="4.9626750">
    <ele>116</ele>
   </trkpt>
   <trkpt lat="50.2112340" lon="4.9628550">
    <ele>116</ele>
   </trkpt>
   <trkpt lat="50.2112720" lon="4.9638930">
    <ele>116</ele>
   </trkpt>
   <trkpt lat="50.2112950" lon="4.9642300">
    <ele>116</ele>
   </trkpt>
   <trkpt lat="50.2113200" lon="4.9647570">
    <ele>117</ele>
   </trkpt>
   <trkpt lat="50.2113070" lon="4.9649720">
    <ele>117</ele>
   </trkpt>
   <trkpt lat="50.2112060" lon="4.9654429">
    <ele>117</ele>
   </trkpt>
   <trkpt lat="50.2111050" lon="4.9661380">
    <ele>119</ele>
   </trkpt>
   <trkpt lat="50.2111040" lon="4.9667470">
    <ele>120</ele>
   </trkpt>
   <trkpt lat="50.2112050" lon="4.9674020">
    <ele>122</ele>
   </trkpt>
   <trkpt lat="50.2113260" lon="4.9678140">
    <ele>124</ele>
   </trkpt>
   <trkpt lat="50.2114610" lon="4.9681280">
    <ele>125</ele>
   </trkpt>
   <trkpt lat="50.2117020" lon="4.9685380">
    <ele>126</ele>
   </trkpt>
   <trkpt lat="50.2124630" lon="4.9692869">
    <ele>130</ele>
   </trkpt>
   <trkpt lat="50.2123870" lon="4.9694290">
    <ele>131</ele>
   </trkpt>
   <trkpt lat="50.2123320" lon="4.9695320">
    <ele>131</ele>
   </trkpt>
   <trkpt lat="50.2122610" lon="4.9695900">
    <ele>131</ele>
   </trkpt>
   <trkpt lat="50.2121410" lon="4.9695980">
    <ele>132</ele>
   </trkpt>
   <trkpt lat="50.2120800" lon="4.9695530">
    <ele>132</ele>
   </trkpt>
   <trkpt lat="50.2108739" lon="4.9677600">
    <ele>143</ele>
   </trkpt>
   <trkpt lat="50.2106390" lon="4.9672919">
    <ele>145</ele>
   </trkpt>
   <trkpt lat="50.2105410" lon="4.9669350">
    <ele>147</ele>
   </trkpt>
   <trkpt lat="50.2104750" lon="4.9664650">
    <ele>148</ele>
   </trkpt>
   <trkpt lat="50.2104340" lon="4.9663959">
    <ele>148</ele>
   </trkpt>
   <trkpt lat="50.2103630" lon="4.9663769">
    <ele>148</ele>
   </trkpt>
   <trkpt lat="50.2103320" lon="4.9664170">
    <ele>148</ele>
   </trkpt>
   <trkpt lat="50.2103130" lon="4.9665169">
    <ele>149</ele>
   </trkpt>
   <trkpt lat="50.2103680" lon="4.9669960">
    <ele>150</ele>
   </trkpt>
   <trkpt lat="50.2104950" lon="4.9675300">
    <ele>151</ele>
   </trkpt>
   <trkpt lat="50.2110429" lon="4.9689960">
    <ele>154</ele>
   </trkpt>
   <trkpt lat="50.2113090" lon="4.9695940">
    <ele>155</ele>
   </trkpt>
   <trkpt lat="50.2116800" lon="4.9700950">
    <ele>156</ele>
   </trkpt>
   <trkpt lat="50.2117450" lon="4.9702320">
    <ele>157</ele>
   </trkpt>
   <trkpt lat="50.2117900" lon="4.9703720">
    <ele>157</ele>
   </trkpt>
   <trkpt lat="50.2118930" lon="4.9709790">
    <ele>159</ele>
   </trkpt>
   <trkpt lat="50.2120600" lon="4.9715380">
    <ele>161</ele>
   </trkpt>
   <trkpt lat="50.2122590" lon="4.9719590">
    <ele>162</ele>
   </trkpt>
   <trkpt lat="50.2122720" lon="4.9720530">
    <ele>163</ele>
   </trkpt>
   <trkpt lat="50.2122440" lon="4.9721300">
    <ele>163</ele>
   </trkpt>
   <trkpt lat="50.2122110" lon="4.9721520">
    <ele>163</ele>
   </trkpt>
   <trkpt lat="50.2121290" lon="4.9720959">
    <ele>164</ele>
   </trkpt>
   <trkpt lat="50.2118350" lon="4.9713160">
    <ele>167</ele>
   </trkpt>
   <trkpt lat="50.2117320" lon="4.9711290">
    <ele>168</ele>
   </trkpt>
   <trkpt lat="50.2115430" lon="4.9708680">
    <ele>169</ele>
   </trkpt>
   <trkpt lat="50.2111740" lon="4.9704450">
    <ele>171</ele>
   </trkpt>
   <trkpt lat="50.2104850" lon="4.9695980">
    <ele>175</ele>
   </trkpt>
   <trkpt lat="50.2102590" lon="4.9692370">
    <ele>175</ele>
   </trkpt>
   <trkpt lat="50.2101090" lon="4.9688370">
    <ele>175</ele>
   </trkpt>
   <trkpt lat="50.2098170" lon="4.9678500">
    <ele>175</ele>
   </trkpt>
   <trkpt lat="50.2097350" lon="4.9674260">
    <ele>175</ele>
   </trkpt>
   <trkpt lat="50.2096940" lon="4.9668810">
    <ele>176</ele>
   </trkpt>
   <trkpt lat="50.2096240" lon="4.9667350">
    <ele>176</ele>
   </trkpt>
   <trkpt lat="50.2095540" lon="4.9666680">
    <ele>176</ele>
   </trkpt>
   <trkpt lat="50.2094200" lon="4.9666130">
    <ele>176</ele>
   </trkpt>
   <trkpt lat="50.2088300" lon="4.9665160">
    <ele>177</ele>
   </trkpt>
   <trkpt lat="50.2085180" lon="4.9663530">
    <ele>177</ele>
   </trkpt>
   <trkpt lat="50.2084230" lon="4.9663620">
    <ele>178</ele>
   </trkpt>
   <trkpt lat="50.2084020" lon="4.9664010">
    <ele>178</ele>
   </trkpt>
   <trkpt lat="50.2084050" lon="4.9665180">
    <ele>178</ele>
   </trkpt>
   <trkpt lat="50.2084580" lon="4.9665730">
    <ele>178</ele>
   </trkpt>
   <trkpt lat="50.2091730" lon="4.9669489">
    <ele>185</ele>
   </trkpt>
   <trkpt lat="50.2093040" lon="4.9670470">
    <ele>186</ele>
   </trkpt>
   <trkpt lat="50.2094350" lon="4.9672650">
    <ele>188</ele>
   </trkpt>
   <trkpt lat="50.2094700" lon="4.9674090">
    <ele>188</ele>
   </trkpt>
   <trkpt lat="50.2095230" lon="4.9684090">
    <ele>194</ele>
   </trkpt>
   <trkpt lat="50.2096469" lon="4.9693310">
    <ele>199</ele>
   </trkpt>
   <trkpt lat="50.2096300" lon="4.9702710">
    <ele>203</ele>
   </trkpt>
   <trkpt lat="50.2097750" lon="4.9710979">
    <ele>207</ele>
   </trkpt>
   <trkpt lat="50.2099059" lon="4.9721940">
    <ele>211</ele>
   </trkpt>
   <trkpt lat="50.2102770" lon="4.9736490">
    <ele>217</ele>
   </trkpt>
   <trkpt lat="50.2103690" lon="4.9745030">
    <ele>219</ele>
   </trkpt>
   <trkpt lat="50.2103690" lon="4.9749590">
    <ele>220</ele>
   </trkpt>
   <trkpt lat="50.2102660" lon="4.9755310">
    <ele>221</ele>
   </trkpt>
   <trkpt lat="50.2089430" lon="4.9788730">
    <ele>227</ele>
   </trkpt>
   <trkpt lat="50.2086940" lon="4.9795020">
    <ele>226</ele>
   </trkpt>
   <trkpt lat="50.2085690" lon="4.9799010">
    <ele>226</ele>
   </trkpt>
   <trkpt lat="50.2085150" lon="4.9801730">
    <ele>225</ele>
   </trkpt>
   <trkpt lat="50.2084730" lon="4.9805659">
    <ele>225</ele>
   </trkpt>
   <trkpt lat="50.2084830" lon="4.9810790">
    <ele>224</ele>
   </trkpt>
   <trkpt lat="50.2087160" lon="4.9840890">
    <ele>215</ele>
   </trkpt>
   <trkpt lat="50.2088399" lon="4.9857823">
    <ele>211</ele>
   </trkpt>
   <trkpt lat="50.2088400" lon="4.9857840">
    <ele>211</ele>
   </trkpt>
   <trkpt lat="50.2087530" lon="4.9858940">
    <ele>211</ele>
   </trkpt>
   <trkpt lat="50.2086700" lon="4.9859470">
    <ele>210</ele>
   </trkpt>
   <trkpt lat="50.2085390" lon="4.9859890">
    <ele>209</ele>
   </trkpt>
   <trkpt lat="50.2084490" lon="4.9860250">
    <ele>209</ele>
   </trkpt>
   <trkpt lat="50.2082200" lon="4.9860940">
    <ele>207</ele>
   </trkpt>
   <trkpt lat="50.2081780" lon="4.9861980">
    <ele>205</ele>
   </trkpt>
   <trkpt lat="50.2081790" lon="4.9863590">
    <ele>205</ele>
   </trkpt>
   <trkpt lat="50.2082150" lon="4.9866070">
    <ele>202</ele>
   </trkpt>
   <trkpt lat="50.2082290" lon="4.9867500">
    <ele>203</ele>
   </trkpt>
   <trkpt lat="50.2082490" lon="4.9869350">
    <ele>201</ele>
   </trkpt>
   <trkpt lat="50.2083550" lon="4.9870750">
    <ele>203</ele>
   </trkpt>
   <trkpt lat="50.2083580" lon="4.9870780">
    <ele>203</ele>
   </trkpt>
   <trkpt lat="50.2084900" lon="4.9872120">
    <ele>203</ele>
   </trkpt>
   <trkpt lat="50.2085270" lon="4.9872780">
    <ele>204</ele>
   </trkpt>
   <trkpt lat="50.2085350" lon="4.9873610">
    <ele>204</ele>
   </trkpt>
   <trkpt lat="50.2085130" lon="4.9874460">
    <ele>204</ele>
   </trkpt>
   <trkpt lat="50.2084080" lon="4.9877410">
    <ele>204</ele>
   </trkpt>
   <trkpt lat="50.2083890" lon="4.9878410">
    <ele>206</ele>
   </trkpt>
   <trkpt lat="50.2084000" lon="4.9879500">
    <ele>206</ele>
   </trkpt>
   <trkpt lat="50.2084500" lon="4.9884840">
    <ele>209</ele>
   </trkpt>
   <trkpt lat="50.2085090" lon="4.9887360">
    <ele>209</ele>
   </trkpt>
   <trkpt lat="50.2086230" lon="4.9890120">
    <ele>210</ele>
   </trkpt>
   <trkpt lat="50.2086880" lon="4.9891620">
    <ele>211</ele>
   </trkpt>
   <trkpt lat="50.2087730" lon="4.9893110">
    <ele>212</ele>
   </trkpt>
   <trkpt lat="50.2089010" lon="4.9894940">
    <ele>214</ele>
   </trkpt>
   <trkpt lat="50.2090010" lon="4.9896690">
    <ele>215</ele>
   </trkpt>
   <trkpt lat="50.2091680" lon="4.9899520">
    <ele>217</ele>
   </trkpt>
   <trkpt lat="50.2094620" lon="4.9903750">
    <ele>219</ele>
   </trkpt>
   <trkpt lat="50.2095930" lon="4.9905810">
    <ele>219</ele>
   </trkpt>
   <trkpt lat="50.2096750" lon="4.9907300">
    <ele>220</ele>
   </trkpt>
   <trkpt lat="50.2097280" lon="4.9908670">
    <ele>220</ele>
   </trkpt>
   <trkpt lat="50.2098230" lon="4.9912920">
    <ele>223</ele>
   </trkpt>
   <trkpt lat="50.2100090" lon="4.9918340">
    <ele>226</ele>
   </trkpt>
   <trkpt lat="50.2105820" lon="4.9935950">
    <ele>235</ele>
   </trkpt>
   <trkpt lat="50.2106780" lon="4.9938900">
    <ele>237</ele>
   </trkpt>
   <trkpt lat="50.2108000" lon="4.9942460">
    <ele>239</ele>
   </trkpt>
   <trkpt lat="50.2110270" lon="4.9949140">
    <ele>242</ele>
   </trkpt>
   <trkpt lat="50.2111220" lon="4.9951890">
    <ele>242</ele>
   </trkpt>
   <trkpt lat="50.2111980" lon="4.9953730">
    <ele>243</ele>
   </trkpt>
   <trkpt lat="50.2113130" lon="4.9955860">
    <ele>244</ele>
   </trkpt>
   <trkpt lat="50.2114930" lon="4.9958580">
    <ele>245</ele>
   </trkpt>
   <trkpt lat="50.2121370" lon="4.9968010">
    <ele>248</ele>
   </trkpt>
   <trkpt lat="50.2122280" lon="4.9969650">
    <ele>250</ele>
   </trkpt>
   <trkpt lat="50.2123710" lon="4.9972570">
    <ele>252</ele>
   </trkpt>
   <trkpt lat="50.2124600" lon="4.9974180">
    <ele>254</ele>
   </trkpt>
   <trkpt lat="50.2125740" lon="4.9975560">
    <ele>254</ele>
   </trkpt>
   <trkpt lat="50.2127970" lon="4.9977910">
    <ele>254</ele>
   </trkpt>
   <trkpt lat="50.2129880" lon="4.9979960">
    <ele>254</ele>
   </trkpt>
   <trkpt lat="50.2132680" lon="4.9983530">
    <ele>254</ele>
   </trkpt>
   <trkpt lat="50.2135050" lon="4.9986480">
    <ele>255</ele>
   </trkpt>
   <trkpt lat="50.2137960" lon="4.9988990">
    <ele>255</ele>
   </trkpt>
   <trkpt lat="50.2144240" lon="4.9994380">
    <ele>253</ele>
   </trkpt>
   <trkpt lat="50.2146810" lon="4.9997640">
    <ele>253</ele>
   </trkpt>
   <trkpt lat="50.2148990" lon="5.0001430">
    <ele>255</ele>
   </trkpt>
   <trkpt lat="50.2153120" lon="5.0008160">
    <ele>258</ele>
   </trkpt>
   <trkpt lat="50.2153930" lon="5.0009550">
    <ele>259</ele>
   </trkpt>
   <trkpt lat="50.2154550" lon="5.0010600">
    <ele>259</ele>
   </trkpt>
   <trkpt lat="50.2156760" lon="5.0015700">
    <ele>264</ele>
   </trkpt>
   <trkpt lat="50.2158910" lon="5.0020370">
    <ele>267</ele>
   </trkpt>
   <trkpt lat="50.2158920" lon="5.0020380">
    <ele>267</ele>
   </trkpt>
   <trkpt lat="50.2159120" lon="5.0020820">
    <ele>267</ele>
   </trkpt>
   <trkpt lat="50.2163380" lon="5.0025380">
    <ele>269</ele>
   </trkpt>
   <trkpt lat="50.2164140" lon="5.0028450">
    <ele>269</ele>
   </trkpt>
   <trkpt lat="50.2164570" lon="5.0032270">
    <ele>270</ele>
   </trkpt>
   <trkpt lat="50.2166730" lon="5.0038700">
    <ele>270</ele>
   </trkpt>
   <trkpt lat="50.2168380" lon="5.0042110">
    <ele>271</ele>
   </trkpt>
   <trkpt lat="50.2168850" lon="5.0045320">
    <ele>270</ele>
   </trkpt>
   <trkpt lat="50.2168860" lon="5.0048740">
    <ele>270</ele>
   </trkpt>
   <trkpt lat="50.2169480" lon="5.0052720">
    <ele>270</ele>
   </trkpt>
   <trkpt lat="50.2169860" lon="5.0055690">
    <ele>270</ele>
   </trkpt>
   <trkpt lat="50.2169570" lon="5.0057850">
    <ele>270</ele>
   </trkpt>
   <trkpt lat="50.2168750" lon="5.0059440">
    <ele>270</ele>
   </trkpt>
   <trkpt lat="50.2168330" lon="5.0059920">
    <ele>271</ele>
   </trkpt>
   <trkpt lat="50.2164150" lon="5.0064710">
    <ele>269</ele>
   </trkpt>
   <trkpt lat="50.2163290" lon="5.0066700">
    <ele>269</ele>
   </trkpt>
   <trkpt lat="50.2163290" lon="5.0069080">
    <ele>270</ele>
   </trkpt>
   <trkpt lat="50.2163870" lon="5.0071830">
    <ele>270</ele>
   </trkpt>
   <trkpt lat="50.2164750" lon="5.0074580">
    <ele>270</ele>
   </trkpt>
   <trkpt lat="50.2165840" lon="5.0077130">
    <ele>269</ele>
   </trkpt>
   <trkpt lat="50.2167260" lon="5.0079450">
    <ele>269</ele>
   </trkpt>
   <trkpt lat="50.2169090" lon="5.0082320">
    <ele>270</ele>
   </trkpt>
   <trkpt lat="50.2172380" lon="5.0086400">
    <ele>271</ele>
   </trkpt>
   <trkpt lat="50.2174380" lon="5.0089450">
    <ele>272</ele>
   </trkpt>
   <trkpt lat="50.2176240" lon="5.0092780">
    <ele>272</ele>
   </trkpt>
   <trkpt lat="50.2180630" lon="5.0103280">
    <ele>275</ele>
   </trkpt>
   <trkpt lat="50.2185040" lon="5.0114660">
    <ele>276</ele>
   </trkpt>
   <trkpt lat="50.2189380" lon="5.0128060">
    <ele>276</ele>
   </trkpt>
   <trkpt lat="50.2190950" lon="5.0133700">
    <ele>275</ele>
   </trkpt>
   <trkpt lat="50.2191780" lon="5.0136250">
    <ele>276</ele>
   </trkpt>
   <trkpt lat="50.2194120" lon="5.0134160">
    <ele>274</ele>
   </trkpt>
   <trkpt lat="50.2196950" lon="5.0131010">
    <ele>273</ele>
   </trkpt>
   <trkpt lat="50.2197600" lon="5.0130820">
    <ele>273</ele>
   </trkpt>
   <trkpt lat="50.2198210" lon="5.0131210">
    <ele>273</ele>
   </trkpt>
   <trkpt lat="50.2198960" lon="5.0133230">
    <ele>273</ele>
   </trkpt>
   <trkpt lat="50.2203570" lon="5.0148730">
    <ele>273</ele>
   </trkpt>
   <trkpt lat="50.2212480" lon="5.0177800">
    <ele>275</ele>
   </trkpt>
   <trkpt lat="50.2212480" lon="5.0177800">
    <ele>275</ele>
   </trkpt>
   <trkpt lat="50.2214190" lon="5.0183380">
    <ele>277</ele>
   </trkpt>
   <trkpt lat="50.2215900" lon="5.0189030">
    <ele>279</ele>
   </trkpt>
   <trkpt lat="50.2193500" lon="5.0205920">
    <ele>276</ele>
   </trkpt>
   <trkpt lat="50.2183560" lon="5.0213440">
    <ele>268</ele>
   </trkpt>
   <trkpt lat="50.2147400" lon="5.0240780">
    <ele>239</ele>
   </trkpt>
   <trkpt lat="50.2132670" lon="5.0251970">
    <ele>224</ele>
   </trkpt>
   <trkpt lat="50.2130250" lon="5.0253740">
    <ele>221</ele>
   </trkpt>
   <trkpt lat="50.2128740" lon="5.0255070">
    <ele>219</ele>
   </trkpt>
   <trkpt lat="50.2127710" lon="5.0256220">
    <ele>217</ele>
   </trkpt>
   <trkpt lat="50.2127060" lon="5.0257290">
    <ele>215</ele>
   </trkpt>
   <trkpt lat="50.2126360" lon="5.0258890">
    <ele>215</ele>
   </trkpt>
   <trkpt lat="50.2125830" lon="5.0260620">
    <ele>214</ele>
   </trkpt>
   <trkpt lat="50.2125550" lon="5.0262230">
    <ele>214</ele>
   </trkpt>
   <trkpt lat="50.2125450" lon="5.0263740">
    <ele>215</ele>
   </trkpt>
   <trkpt lat="50.2125590" lon="5.0265330">
    <ele>215</ele>
   </trkpt>
   <trkpt lat="50.2125900" lon="5.0266900">
    <ele>214</ele>
   </trkpt>
   <trkpt lat="50.2126500" lon="5.0268620">
    <ele>214</ele>
   </trkpt>
   <trkpt lat="50.2129680" lon="5.0275350">
    <ele>209</ele>
   </trkpt>
   <trkpt lat="50.2131590" lon="5.0279510">
    <ele>208</ele>
   </trkpt>
   <trkpt lat="50.2132090" lon="5.0280780">
    <ele>208</ele>
   </trkpt>
   <trkpt lat="50.2132510" lon="5.0282460">
    <ele>207</ele>
   </trkpt>
   <trkpt lat="50.2132570" lon="5.0283720">
    <ele>206</ele>
   </trkpt>
   <trkpt lat="50.2132470" lon="5.0284830">
    <ele>204</ele>
   </trkpt>
   <trkpt lat="50.2132120" lon="5.0286000">
    <ele>204</ele>
   </trkpt>
   <trkpt lat="50.2131770" lon="5.0286780">
    <ele>202</ele>
   </trkpt>
   <trkpt lat="50.2131030" lon="5.0287620">
    <ele>200</ele>
   </trkpt>
   <trkpt lat="50.2130210" lon="5.0288110">
    <ele>198</ele>
   </trkpt>
   <trkpt lat="50.2129400" lon="5.0288100">
    <ele>196</ele>
   </trkpt>
   <trkpt lat="50.2128620" lon="5.0287750">
    <ele>196</ele>
   </trkpt>
   <trkpt lat="50.2127720" lon="5.0287100">
    <ele>194</ele>
   </trkpt>
   <trkpt lat="50.2126870" lon="5.0286260">
    <ele>195</ele>
   </trkpt>
   <trkpt lat="50.2122860" lon="5.0281120">
    <ele>196</ele>
   </trkpt>
   <trkpt lat="50.2121050" lon="5.0279160">
    <ele>193</ele>
   </trkpt>
   <trkpt lat="50.2119550" lon="5.0277740">
    <ele>194</ele>
   </trkpt>
   <trkpt lat="50.2118500" lon="5.0277020">
    <ele>192</ele>
   </trkpt>
   <trkpt lat="50.2116370" lon="5.0275790">
    <ele>190</ele>
   </trkpt>
   <trkpt lat="50.2114310" lon="5.0274840">
    <ele>186</ele>
   </trkpt>
   <trkpt lat="50.2110380" lon="5.0273720">
    <ele>186</ele>
   </trkpt>
   <trkpt lat="50.2107880" lon="5.0273330">
    <ele>187</ele>
   </trkpt>
   <trkpt lat="50.2106030" lon="5.0273430">
    <ele>187</ele>
   </trkpt>
   <trkpt lat="50.2104720" lon="5.0273790">
    <ele>187</ele>
   </trkpt>
   <trkpt lat="50.2103590" lon="5.0274400">
    <ele>186</ele>
   </trkpt>
   <trkpt lat="50.2103030" lon="5.0274780">
    <ele>182</ele>
   </trkpt>
   <trkpt lat="50.2101070" lon="5.0276100">
    <ele>182</ele>
   </trkpt>
   <trkpt lat="50.2099250" lon="5.0276690">
    <ele>178</ele>
   </trkpt>
   <trkpt lat="50.2097300" lon="5.0277010">
    <ele>177</ele>
   </trkpt>
   <trkpt lat="50.2096070" lon="5.0277140">
    <ele>176</ele>
   </trkpt>
   <trkpt lat="50.2094350" lon="5.0277329">
    <ele>179</ele>
   </trkpt>
   <trkpt lat="50.2089860" lon="5.0277360">
    <ele>180</ele>
   </trkpt>
   <trkpt lat="50.2088640" lon="5.0276970">
    <ele>181</ele>
   </trkpt>
   <trkpt lat="50.2086410" lon="5.0275410">
    <ele>183</ele>
   </trkpt>
   <trkpt lat="50.2082070" lon="5.0270710">
    <ele>187</ele>
   </trkpt>
   <trkpt lat="50.2080560" lon="5.0268879">
    <ele>189</ele>
   </trkpt>
   <trkpt lat="50.2078080" lon="5.0264600">
    <ele>191</ele>
   </trkpt>
   <trkpt lat="50.2077120" lon="5.0261900">
    <ele>193</ele>
   </trkpt>
   <trkpt lat="50.2070090" lon="5.0237780">
    <ele>197</ele>
   </trkpt>
   <trkpt lat="50.2068400" lon="5.0232960">
    <ele>199</ele>
   </trkpt>
   <trkpt lat="50.2067600" lon="5.0231450">
    <ele>199</ele>
   </trkpt>
   <trkpt lat="50.2066560" lon="5.0230309">
    <ele>200</ele>
   </trkpt>
   <trkpt lat="50.2065520" lon="5.0229680">
    <ele>200</ele>
   </trkpt>
   <trkpt lat="50.2062950" lon="5.0228860">
    <ele>202</ele>
   </trkpt>
   <trkpt lat="50.2061540" lon="5.0229110">
    <ele>203</ele>
   </trkpt>
   <trkpt lat="50.2059130" lon="5.0230380">
    <ele>204</ele>
   </trkpt>
   <trkpt lat="50.2056830" lon="5.0233180">
    <ele>205</ele>
   </trkpt>
   <trkpt lat="50.2050640" lon="5.0245200">
    <ele>213</ele>
   </trkpt>
   <trkpt lat="50.2047300" lon="5.0253450">
    <ele>219</ele>
   </trkpt>
   <trkpt lat="50.2045559" lon="5.0261350">
    <ele>224</ele>
   </trkpt>
   <trkpt lat="50.2044530" lon="5.0264850">
    <ele>225</ele>
   </trkpt>
   <trkpt lat="50.2042570" lon="5.0269430">
    <ele>228</ele>
   </trkpt>
   <trkpt lat="50.2040310" lon="5.0272620">
    <ele>231</ele>
   </trkpt>
   <trkpt lat="50.2027370" lon="5.0286229">
    <ele>240</ele>
   </trkpt>
   <trkpt lat="50.1996600" lon="5.0318430">
    <ele>256</ele>
   </trkpt>
   <trkpt lat="50.1992420" lon="5.0322820">
    <ele>257</ele>
   </trkpt>
   <trkpt lat="50.1958259" lon="5.0358670">
    <ele>251</ele>
   </trkpt>
   <trkpt lat="50.1951460" lon="5.0365890">
    <ele>250</ele>
   </trkpt>
   <trkpt lat="50.1949870" lon="5.0368050">
    <ele>250</ele>
   </trkpt>
   <trkpt lat="50.1948470" lon="5.0371090">
    <ele>250</ele>
   </trkpt>
   <trkpt lat="50.1945740" lon="5.0378730">
    <ele>250</ele>
   </trkpt>
   <trkpt lat="50.1943000" lon="5.0386600">
    <ele>251</ele>
   </trkpt>
   <trkpt lat="50.1942809" lon="5.0387140">
    <ele>251</ele>
   </trkpt>
   <trkpt lat="50.1940720" lon="5.0393150">
    <ele>251</ele>
   </trkpt>
   <trkpt lat="50.1933999" lon="5.0412120">
    <ele>250</ele>
   </trkpt>
   <trkpt lat="50.1933210" lon="5.0415570">
    <ele>250</ele>
   </trkpt>
   <trkpt lat="50.1933050" lon="5.0421210">
    <ele>250</ele>
   </trkpt>
   <trkpt lat="50.1933950" lon="5.0428369">
    <ele>249</ele>
   </trkpt>
   <trkpt lat="50.1934210" lon="5.0430460">
    <ele>249</ele>
   </trkpt>
   <trkpt lat="50.1935900" lon="5.0431100">
    <ele>249</ele>
   </trkpt>
   <trkpt lat="50.1936600" lon="5.0432439">
    <ele>248</ele>
   </trkpt>
   <trkpt lat="50.1936050" lon="5.0435280">
    <ele>248</ele>
   </trkpt>
   <trkpt lat="50.1937370" lon="5.0443700">
    <ele>247</ele>
   </trkpt>
   <trkpt lat="50.1939909" lon="5.0462720">
    <ele>246</ele>
   </trkpt>
   <trkpt lat="50.1940389" lon="5.0467730">
    <ele>246</ele>
   </trkpt>
   <trkpt lat="50.1940590" lon="5.0473390">
    <ele>246</ele>
   </trkpt>
   <trkpt lat="50.1940460" lon="5.0485160">
    <ele>247</ele>
   </trkpt>
   <trkpt lat="50.1940760" lon="5.0507010">
    <ele>253</ele>
   </trkpt>
   <trkpt lat="50.1951720" lon="5.0526880">
    <ele>261</ele>
   </trkpt>
   <trkpt lat="50.1953570" lon="5.0530070">
    <ele>262</ele>
   </trkpt>
   <trkpt lat="50.1972870" lon="5.0565179">
    <ele>261</ele>
   </trkpt>
   <trkpt lat="50.1975310" lon="5.0568460">
    <ele>261</ele>
   </trkpt>
   <trkpt lat="50.1976749" lon="5.0569380">
    <ele>261</ele>
   </trkpt>
   <trkpt lat="50.1978770" lon="5.0570230">
    <ele>261</ele>
   </trkpt>
   <trkpt lat="50.1980430" lon="5.0571210">
    <ele>261</ele>
   </trkpt>
   <trkpt lat="50.1987040" lon="5.0576900">
    <ele>260</ele>
   </trkpt>
   <trkpt lat="50.2029370" lon="5.0612800">
    <ele>255</ele>
   </trkpt>
   <trkpt lat="50.2030800" lon="5.0614120">
    <ele>254</ele>
   </trkpt>
   <trkpt lat="50.2036310" lon="5.0621300">
    <ele>251</ele>
   </trkpt>
   <trkpt lat="50.2041280" lon="5.0630480">
    <ele>248</ele>
   </trkpt>
   <trkpt lat="50.2053889" lon="5.0642180">
    <ele>240</ele>
   </trkpt>
   <trkpt lat="50.2055230" lon="5.0643190">
    <ele>239</ele>
   </trkpt>
   <trkpt lat="50.2057340" lon="5.0643530">
    <ele>239</ele>
   </trkpt>
   <trkpt lat="50.2059220" lon="5.0642340">
    <ele>239</ele>
   </trkpt>
   <trkpt lat="50.2060820" lon="5.0639970">
    <ele>239</ele>
   </trkpt>
   <trkpt lat="50.2061930" lon="5.0636060">
    <ele>238</ele>
   </trkpt>
   <trkpt lat="50.2062290" lon="5.0633190">
    <ele>238</ele>
   </trkpt>
   <trkpt lat="50.2062280" lon="5.0631020">
    <ele>238</ele>
   </trkpt>
   <trkpt lat="50.2060740" lon="5.0617530">
    <ele>236</ele>
   </trkpt>
   <trkpt lat="50.2060570" lon="5.0610570">
    <ele>234</ele>
   </trkpt>
   <trkpt lat="50.2060810" lon="5.0607020">
    <ele>233</ele>
   </trkpt>
   <trkpt lat="50.2061319" lon="5.0603870">
    <ele>232</ele>
   </trkpt>
   <trkpt lat="50.2064000" lon="5.0591070">
    <ele>226</ele>
   </trkpt>
   <trkpt lat="50.2064310" lon="5.0584270">
    <ele>223</ele>
   </trkpt>
   <trkpt lat="50.2064170" lon="5.0580910">
    <ele>221</ele>
   </trkpt>
   <trkpt lat="50.2063550" lon="5.0576520">
    <ele>218</ele>
   </trkpt>
   <trkpt lat="50.2061020" lon="5.0569850">
    <ele>214</ele>
   </trkpt>
   <trkpt lat="50.2060400" lon="5.0565190">
    <ele>211</ele>
   </trkpt>
   <trkpt lat="50.2060270" lon="5.0560029">
    <ele>209</ele>
   </trkpt>
   <trkpt lat="50.2061080" lon="5.0554190">
    <ele>206</ele>
   </trkpt>
   <trkpt lat="50.2062500" lon="5.0549410">
    <ele>203</ele>
   </trkpt>
   <trkpt lat="50.2064120" lon="5.0545000">
    <ele>200</ele>
   </trkpt>
   <trkpt lat="50.2064480" lon="5.0542239">
    <ele>199</ele>
   </trkpt>
   <trkpt lat="50.2064320" lon="5.0537740">
    <ele>197</ele>
   </trkpt>
   <trkpt lat="50.2065140" lon="5.0535410">
    <ele>196</ele>
   </trkpt>
   <trkpt lat="50.2067819" lon="5.0532670">
    <ele>193</ele>
   </trkpt>
   <trkpt lat="50.2069070" lon="5.0531750">
    <ele>192</ele>
   </trkpt>
   <trkpt lat="50.2070610" lon="5.0531130">
    <ele>191</ele>
   </trkpt>
   <trkpt lat="50.2074480" lon="5.0530330">
    <ele>188</ele>
   </trkpt>
   <trkpt lat="50.2075910" lon="5.0529580">
    <ele>187</ele>
   </trkpt>
   <trkpt lat="50.2077680" lon="5.0527680">
    <ele>187</ele>
   </trkpt>
   <trkpt lat="50.2079140" lon="5.0523890">
    <ele>187</ele>
   </trkpt>
   <trkpt lat="50.2079760" lon="5.0519850">
    <ele>188</ele>
   </trkpt>
   <trkpt lat="50.2079639" lon="5.0516810">
    <ele>188</ele>
   </trkpt>
   <trkpt lat="50.2078070" lon="5.0505960">
    <ele>189</ele>
   </trkpt>
   <trkpt lat="50.2076000" lon="5.0496150">
    <ele>191</ele>
   </trkpt>
   <trkpt lat="50.2074760" lon="5.0492500">
    <ele>192</ele>
   </trkpt>
   <trkpt lat="50.2070290" lon="5.0483260">
    <ele>194</ele>
   </trkpt>
   <trkpt lat="50.2069950" lon="5.0481390">
    <ele>195</ele>
   </trkpt>
   <trkpt lat="50.2069970" lon="5.0480219">
    <ele>195</ele>
   </trkpt>
   <trkpt lat="50.2070680" lon="5.0478080">
    <ele>196</ele>
   </trkpt>
   <trkpt lat="50.2072170" lon="5.0476900">
    <ele>197</ele>
   </trkpt>
   <trkpt lat="50.2073040" lon="5.0476820">
    <ele>198</ele>
   </trkpt>
   <trkpt lat="50.2074039" lon="5.0477350">
    <ele>198</ele>
   </trkpt>
   <trkpt lat="50.2074950" lon="5.0478390">
    <ele>199</ele>
   </trkpt>
   <trkpt lat="50.2078700" lon="5.0485770">
    <ele>204</ele>
   </trkpt>
   <trkpt lat="50.2079890" lon="5.0487160">
    <ele>205</ele>
   </trkpt>
   <trkpt lat="50.2081990" lon="5.0488240">
    <ele>206</ele>
   </trkpt>
   <trkpt lat="50.2084220" lon="5.0487970">
    <ele>208</ele>
   </trkpt>
   <trkpt lat="50.2085680" lon="5.0487120">
    <ele>209</ele>
   </trkpt>
   <trkpt lat="50.2091100" lon="5.0481730">
    <ele>212</ele>
   </trkpt>
   <trkpt lat="50.2093240" lon="5.0481299">
    <ele>213</ele>
   </trkpt>
   <trkpt lat="50.2094170" lon="5.0481830">
    <ele>214</ele>
   </trkpt>
   <trkpt lat="50.2094720" lon="5.0482590">
    <ele>214</ele>
   </trkpt>
   <trkpt lat="50.2095220" lon="5.0485120">
    <ele>215</ele>
   </trkpt>
   <trkpt lat="50.2094809" lon="5.0488650">
    <ele>216</ele>
   </trkpt>
   <trkpt lat="50.2093630" lon="5.0493770">
    <ele>218</ele>
   </trkpt>
   <trkpt lat="50.2093420" lon="5.0496820">
    <ele>219</ele>
   </trkpt>
   <trkpt lat="50.2093680" lon="5.0498700">
    <ele>220</ele>
   </trkpt>
   <trkpt lat="50.2094730" lon="5.0502150">
    <ele>221</ele>
   </trkpt>
   <trkpt lat="50.2094800" lon="5.0502290">
    <ele>222</ele>
   </trkpt>
   <trkpt lat="50.2095940" lon="5.0505350">
    <ele>223</ele>
   </trkpt>
   <trkpt lat="50.2097399" lon="5.0508070">
    <ele>224</ele>
   </trkpt>
   <trkpt lat="50.2106459" lon="5.0518080">
    <ele>231</ele>
   </trkpt>
   <trkpt lat="50.2108890" lon="5.0520170">
    <ele>233</ele>
   </trkpt>
   <trkpt lat="50.2109669" lon="5.0520850">
    <ele>233</ele>
   </trkpt>
   <trkpt lat="50.2112610" lon="5.0521710">
    <ele>235</ele>
   </trkpt>
   <trkpt lat="50.2115040" lon="5.0522490">
    <ele>237</ele>
   </trkpt>
   <trkpt lat="50.2116320" lon="5.0523400">
    <ele>238</ele>
   </trkpt>
   <trkpt lat="50.2116850" lon="5.0524560">
    <ele>238</ele>
   </trkpt>
   <trkpt lat="50.2117810" lon="5.0528010">
    <ele>240</ele>
   </trkpt>
   <trkpt lat="50.2119630" lon="5.0533960">
    <ele>242</ele>
   </trkpt>
   <trkpt lat="50.2121290" lon="5.0538780">
    <ele>244</ele>
   </trkpt>
   <trkpt lat="50.2122820" lon="5.0541490">
    <ele>245</ele>
   </trkpt>
   <trkpt lat="50.2130110" lon="5.0553030">
    <ele>251</ele>
   </trkpt>
   <trkpt lat="50.2131280" lon="5.0553910">
    <ele>252</ele>
   </trkpt>
   <trkpt lat="50.2145900" lon="5.0555060">
    <ele>262</ele>
   </trkpt>
   <trkpt lat="50.2148420" lon="5.0556000">
    <ele>263</ele>
   </trkpt>
   <trkpt lat="50.2150340" lon="5.0557950">
    <ele>264</ele>
   </trkpt>
   <trkpt lat="50.2154809" lon="5.0563860">
    <ele>266</ele>
   </trkpt>
   <trkpt lat="50.2191680" lon="5.0614420">
    <ele>272</ele>
   </trkpt>
   <trkpt lat="50.2192600" lon="5.0615700">
    <ele>272</ele>
   </trkpt>
   <trkpt lat="50.2194560" lon="5.0618489">
    <ele>272</ele>
   </trkpt>
   <trkpt lat="50.2196690" lon="5.0621300">
    <ele>271</ele>
   </trkpt>
   <trkpt lat="50.2199620" lon="5.0625280">
    <ele>271</ele>
   </trkpt>
   <trkpt lat="50.2202060" lon="5.0627620">
    <ele>271</ele>
   </trkpt>
   <trkpt lat="50.2205120" lon="5.0628990">
    <ele>270</ele>
   </trkpt>
   <trkpt lat="50.2206860" lon="5.0629229">
    <ele>270</ele>
   </trkpt>
   <trkpt lat="50.2208690" lon="5.0628950">
    <ele>270</ele>
   </trkpt>
   <trkpt lat="50.2210370" lon="5.0628310">
    <ele>269</ele>
   </trkpt>
   <trkpt lat="50.2214960" lon="5.0625400">
    <ele>269</ele>
   </trkpt>
   <trkpt lat="50.2220000" lon="5.0622070">
    <ele>269</ele>
   </trkpt>
   <trkpt lat="50.2223070" lon="5.0620920">
    <ele>269</ele>
   </trkpt>
   <trkpt lat="50.2225610" lon="5.0620790">
    <ele>270</ele>
   </trkpt>
   <trkpt lat="50.2228430" lon="5.0621430">
    <ele>270</ele>
   </trkpt>
   <trkpt lat="50.2230990" lon="5.0622880">
    <ele>271</ele>
   </trkpt>
   <trkpt lat="50.2283850" lon="5.0668650">
    <ele>291</ele>
   </trkpt>
   <trkpt lat="50.2287950" lon="5.0670730">
    <ele>292</ele>
   </trkpt>
   <trkpt lat="50.2291180" lon="5.0671690">
    <ele>292</ele>
   </trkpt>
   <trkpt lat="50.2366249" lon="5.0692600">
    <ele>300</ele>
   </trkpt>
   <trkpt lat="50.2367380" lon="5.0692350">
    <ele>300</ele>
   </trkpt>
   <trkpt lat="50.2368970" lon="5.0691130">
    <ele>300</ele>
   </trkpt>
   <trkpt lat="50.2372620" lon="5.0686060">
    <ele>298</ele>
   </trkpt>
   <trkpt lat="50.2375000" lon="5.0683410">
    <ele>297</ele>
   </trkpt>
   <trkpt lat="50.2376549" lon="5.0682370">
    <ele>297</ele>
   </trkpt>
   <trkpt lat="50.2377449" lon="5.0682159">
    <ele>296</ele>
   </trkpt>
   <trkpt lat="50.2379680" lon="5.0682650">
    <ele>295</ele>
   </trkpt>
   <trkpt lat="50.2387370" lon="5.0687830">
    <ele>292</ele>
   </trkpt>
   <trkpt lat="50.2389760" lon="5.0689950">
    <ele>290</ele>
   </trkpt>
   <trkpt lat="50.2391730" lon="5.0692760">
    <ele>289</ele>
   </trkpt>
   <trkpt lat="50.2395080" lon="5.0700750">
    <ele>286</ele>
   </trkpt>
   <trkpt lat="50.2396190" lon="5.0702619">
    <ele>285</ele>
   </trkpt>
   <trkpt lat="50.2398520" lon="5.0704480">
    <ele>283</ele>
   </trkpt>
   <trkpt lat="50.2401110" lon="5.0705190">
    <ele>282</ele>
   </trkpt>
   <trkpt lat="50.2402630" lon="5.0705230">
    <ele>281</ele>
   </trkpt>
   <trkpt lat="50.2404320" lon="5.0704650">
    <ele>280</ele>
   </trkpt>
   <trkpt lat="50.2405570" lon="5.0703780">
    <ele>279</ele>
   </trkpt>
   <trkpt lat="50.2407840" lon="5.0700780">
    <ele>277</ele>
   </trkpt>
   <trkpt lat="50.2408850" lon="5.0698700">
    <ele>276</ele>
   </trkpt>
   <trkpt lat="50.2409530" lon="5.0696470">
    <ele>276</ele>
   </trkpt>
   <trkpt lat="50.2410020" lon="5.0693770">
    <ele>274</ele>
   </trkpt>
   <trkpt lat="50.2410020" lon="5.0690870">
    <ele>273</ele>
   </trkpt>
   <trkpt lat="50.2409490" lon="5.0688220">
    <ele>272</ele>
   </trkpt>
   <trkpt lat="50.2405649" lon="5.0676000">
    <ele>268</ele>
   </trkpt>
   <trkpt lat="50.2405520" lon="5.0673230">
    <ele>267</ele>
   </trkpt>
   <trkpt lat="50.2406170" lon="5.0670980">
    <ele>267</ele>
   </trkpt>
   <trkpt lat="50.2407420" lon="5.0669310">
    <ele>266</ele>
   </trkpt>
   <trkpt lat="50.2408540" lon="5.0668860">
    <ele>265</ele>
   </trkpt>
   <trkpt lat="50.2418970" lon="5.0671370">
    <ele>260</ele>
   </trkpt>
   <trkpt lat="50.2420290" lon="5.0672340">
    <ele>259</ele>
   </trkpt>
   <trkpt lat="50.2421670" lon="5.0674010">
    <ele>258</ele>
   </trkpt>
   <trkpt lat="50.2428780" lon="5.0683429">
    <ele>254</ele>
   </trkpt>
   <trkpt lat="50.2430220" lon="5.0684310">
    <ele>254</ele>
   </trkpt>
   <trkpt lat="50.2433160" lon="5.0685330">
    <ele>253</ele>
   </trkpt>
   <trkpt lat="50.2434060" lon="5.0685960">
    <ele>252</ele>
   </trkpt>
   <trkpt lat="50.2434740" lon="5.0686930">
    <ele>252</ele>
   </trkpt>
   <trkpt lat="50.2435140" lon="5.0689050">
    <ele>252</ele>
   </trkpt>
   <trkpt lat="50.2435000" lon="5.0690790">
    <ele>251</ele>
   </trkpt>
   <trkpt lat="50.2433350" lon="5.0698500">
    <ele>250</ele>
   </trkpt>
   <trkpt lat="50.2433040" lon="5.0700970">
    <ele>249</ele>
   </trkpt>
   <trkpt lat="50.2433130" lon="5.0701760">
    <ele>250</ele>
   </trkpt>
   <trkpt lat="50.2433930" lon="5.0704430">
    <ele>250</ele>
   </trkpt>
   <trkpt lat="50.2436560" lon="5.0707630">
    <ele>251</ele>
   </trkpt>
   <trkpt lat="50.2486510" lon="5.0754420">
    <ele>260</ele>
   </trkpt>
   <trkpt lat="50.2490160" lon="5.0758880">
    <ele>260</ele>
   </trkpt>
   <trkpt lat="50.2496350" lon="5.0768270">
    <ele>258</ele>
   </trkpt>
   <trkpt lat="50.2498430" lon="5.0770780">
    <ele>258</ele>
   </trkpt>
   <trkpt lat="50.2501520" lon="5.0773440">
    <ele>256</ele>
   </trkpt>
   <trkpt lat="50.2508350" lon="5.0778280">
    <ele>254</ele>
   </trkpt>
   <trkpt lat="50.2511340" lon="5.0781380">
    <ele>255</ele>
   </trkpt>
   <trkpt lat="50.2511590" lon="5.0781680">
    <ele>255</ele>
   </trkpt>
   <trkpt lat="50.2516980" lon="5.0789060">
    <ele>255</ele>
   </trkpt>
   <trkpt lat="50.2528190" lon="5.0808420">
    <ele>258</ele>
   </trkpt>
   <trkpt lat="50.2530790" lon="5.0814740">
    <ele>259</ele>
   </trkpt>
   <trkpt lat="50.2534020" lon="5.0825040">
    <ele>261</ele>
   </trkpt>
   <trkpt lat="50.2542199" lon="5.0847749">
    <ele>266</ele>
   </trkpt>
   <trkpt lat="50.2545200" lon="5.0856180">
    <ele>267</ele>
   </trkpt>
   <trkpt lat="50.2548869" lon="5.0870080">
    <ele>268</ele>
   </trkpt>
   <trkpt lat="50.2552590" lon="5.0885270">
    <ele>269</ele>
   </trkpt>
   <trkpt lat="50.2557950" lon="5.0903890">
    <ele>270</ele>
   </trkpt>
   <trkpt lat="50.2559630" lon="5.0912890">
    <ele>270</ele>
   </trkpt>
   <trkpt lat="50.2561550" lon="5.0927000">
    <ele>272</ele>
   </trkpt>
   <trkpt lat="50.2563220" lon="5.0939550">
    <ele>274</ele>
   </trkpt>
   <trkpt lat="50.2564650" lon="5.0949120">
    <ele>276</ele>
   </trkpt>
   <trkpt lat="50.2565660" lon="5.0953370">
    <ele>276</ele>
   </trkpt>
   <trkpt lat="50.2567940" lon="5.0959740">
    <ele>277</ele>
   </trkpt>
   <trkpt lat="50.2570420" lon="5.0964970">
    <ele>277</ele>
   </trkpt>
   <trkpt lat="50.2573150" lon="5.0970240">
    <ele>278</ele>
   </trkpt>
   <trkpt lat="50.2574110" lon="5.0971500">
    <ele>278</ele>
   </trkpt>
   <trkpt lat="50.2575430" lon="5.0972430">
    <ele>277</ele>
   </trkpt>
   <trkpt lat="50.2579500" lon="5.0974670">
    <ele>277</ele>
   </trkpt>
   <trkpt lat="50.2579800" lon="5.0975040">
    <ele>276</ele>
   </trkpt>
   <trkpt lat="50.2580150" lon="5.0975730">
    <ele>276</ele>
   </trkpt>
   <trkpt lat="50.2580490" lon="5.0978180">
    <ele>276</ele>
   </trkpt>
   <trkpt lat="50.2580260" lon="5.0984470">
    <ele>275</ele>
   </trkpt>
   <trkpt lat="50.2580930" lon="5.0987620">
    <ele>275</ele>
   </trkpt>
   <trkpt lat="50.2581170" lon="5.0988380">
    <ele>275</ele>
   </trkpt>
   <trkpt lat="50.2582410" lon="5.0991099">
    <ele>274</ele>
   </trkpt>
   <trkpt lat="50.2584280" lon="5.0994730">
    <ele>274</ele>
   </trkpt>
   <trkpt lat="50.2585950" lon="5.0995580">
    <ele>274</ele>
   </trkpt>
   <trkpt lat="50.2588820" lon="5.0995490">
    <ele>274</ele>
   </trkpt>
   <trkpt lat="50.2589920" lon="5.0995440">
    <ele>274</ele>
   </trkpt>
   <trkpt lat="50.2592300" lon="5.0995799">
    <ele>274</ele>
   </trkpt>
   <trkpt lat="50.2595710" lon="5.0997080">
    <ele>275</ele>
   </trkpt>
   <trkpt lat="50.2600010" lon="5.0999310">
    <ele>275</ele>
   </trkpt>
   <trkpt lat="50.2603520" lon="5.1001640">
    <ele>274</ele>
   </trkpt>
   <trkpt lat="50.2606510" lon="5.1004240">
    <ele>274</ele>
   </trkpt>
   <trkpt lat="50.2610070" lon="5.1007890">
    <ele>274</ele>
   </trkpt>
   <trkpt lat="50.2611230" lon="5.1009480">
    <ele>273</ele>
   </trkpt>
   <trkpt lat="50.2613800" lon="5.1014280">
    <ele>273</ele>
   </trkpt>
   <trkpt lat="50.2618480" lon="5.1025930">
    <ele>270</ele>
   </trkpt>
   <trkpt lat="50.2619760" lon="5.1028600">
    <ele>269</ele>
   </trkpt>
   <trkpt lat="50.2622450" lon="5.1032370">
    <ele>268</ele>
   </trkpt>
   <trkpt lat="50.2628560" lon="5.1037110">
    <ele>265</ele>
   </trkpt>
   <trkpt lat="50.2631400" lon="5.1039220">
    <ele>265</ele>
   </trkpt>
   <trkpt lat="50.2632310" lon="5.1039899">
    <ele>264</ele>
   </trkpt>
   <trkpt lat="50.2633040" lon="5.1040460">
    <ele>264</ele>
   </trkpt>
   <trkpt lat="50.2633290" lon="5.1040650">
    <ele>264</ele>
   </trkpt>
   <trkpt lat="50.2636619" lon="5.1043180">
    <ele>263</ele>
   </trkpt>
   <trkpt lat="50.2637950" lon="5.1044140">
    <ele>263</ele>
   </trkpt>
   <trkpt lat="50.2638109" lon="5.1044219">
    <ele>263</ele>
   </trkpt>
   <trkpt lat="50.2641560" lon="5.1045570">
    <ele>262</ele>
   </trkpt>
   <trkpt lat="50.2643780" lon="5.1045840">
    <ele>261</ele>
   </trkpt>
   <trkpt lat="50.2645810" lon="5.1045710">
    <ele>261</ele>
   </trkpt>
   <trkpt lat="50.2648680" lon="5.1044870">
    <ele>261</ele>
   </trkpt>
   <trkpt lat="50.2650689" lon="5.1043820">
    <ele>261</ele>
   </trkpt>
   <trkpt lat="50.2650999" lon="5.1043670">
    <ele>261</ele>
   </trkpt>
   <trkpt lat="50.2652820" lon="5.1042630">
    <ele>260</ele>
   </trkpt>
   <trkpt lat="50.2655440" lon="5.1041140">
    <ele>260</ele>
   </trkpt>
   <trkpt lat="50.2659110" lon="5.1039320">
    <ele>260</ele>
   </trkpt>
   <trkpt lat="50.2660210" lon="5.1038960">
    <ele>260</ele>
   </trkpt>
   <trkpt lat="50.2661390" lon="5.1039160">
    <ele>260</ele>
   </trkpt>
   <trkpt lat="50.2663050" lon="5.1040590">
    <ele>259</ele>
   </trkpt>
   <trkpt lat="50.2667650" lon="5.1048440">
    <ele>259</ele>
   </trkpt>
   <trkpt lat="50.2670020" lon="5.1052620">
    <ele>258</ele>
   </trkpt>
   <trkpt lat="50.2672440" lon="5.1056810">
    <ele>258</ele>
   </trkpt>
   <trkpt lat="50.2677570" lon="5.1066020">
    <ele>257</ele>
   </trkpt>
   <trkpt lat="50.2678510" lon="5.1066690">
    <ele>257</ele>
   </trkpt>
   <trkpt lat="50.2680820" lon="5.1068300">
    <ele>256</ele>
   </trkpt>
   <trkpt lat="50.2685869" lon="5.1069699">
    <ele>255</ele>
   </trkpt>
   <trkpt lat="50.2687460" lon="5.1077230">
    <ele>256</ele>
   </trkpt>
   <trkpt lat="50.2687550" lon="5.1078560">
    <ele>256</ele>
   </trkpt>
   <trkpt lat="50.2687219" lon="5.1083240">
    <ele>257</ele>
   </trkpt>
   <trkpt lat="50.2686790" lon="5.1087630">
    <ele>258</ele>
   </trkpt>
   <trkpt lat="50.2686769" lon="5.1089320">
    <ele>258</ele>
   </trkpt>
   <trkpt lat="50.2688000" lon="5.1094240">
    <ele>259</ele>
   </trkpt>
   <trkpt lat="50.2689990" lon="5.1101240">
    <ele>261</ele>
   </trkpt>
   <trkpt lat="50.2691280" lon="5.1104760">
    <ele>263</ele>
   </trkpt>
   <trkpt lat="50.2696180" lon="5.1101160">
    <ele>265</ele>
   </trkpt>
   <trkpt lat="50.2698510" lon="5.1098780">
    <ele>267</ele>
   </trkpt>
   <trkpt lat="50.2701170" lon="5.1096060">
    <ele>268</ele>
   </trkpt>
   <trkpt lat="50.2703050" lon="5.1093240">
    <ele>269</ele>
   </trkpt>
   <trkpt lat="50.2704100" lon="5.1091810">
    <ele>270</ele>
   </trkpt>
   <trkpt lat="50.2706150" lon="5.1090010">
    <ele>271</ele>
   </trkpt>
   <trkpt lat="50.2708150" lon="5.1089270">
    <ele>272</ele>
   </trkpt>
   <trkpt lat="50.2709330" lon="5.1089240">
    <ele>272</ele>
   </trkpt>
   <trkpt lat="50.2710230" lon="5.1089440">
    <ele>273</ele>
   </trkpt>
   <trkpt lat="50.2714030" lon="5.1091040">
    <ele>274</ele>
   </trkpt>
   <trkpt lat="50.2716050" lon="5.1092180">
    <ele>275</ele>
   </trkpt>
   <trkpt lat="50.2720340" lon="5.1095050">
    <ele>277</ele>
   </trkpt>
   <trkpt lat="50.2723910" lon="5.1098330">
    <ele>279</ele>
   </trkpt>
   <trkpt lat="50.2729900" lon="5.1104580">
    <ele>283</ele>
   </trkpt>
   <trkpt lat="50.2732979" lon="5.1108540">
    <ele>285</ele>
   </trkpt>
   <trkpt lat="50.2736450" lon="5.1114090">
    <ele>287</ele>
   </trkpt>
   <trkpt lat="50.2736610" lon="5.1114330">
    <ele>287</ele>
   </trkpt>
   <trkpt lat="50.2736860" lon="5.1114650">
    <ele>288</ele>
   </trkpt>
   <trkpt lat="50.2741070" lon="5.1122980">
    <ele>290</ele>
   </trkpt>
   <trkpt lat="50.2776300" lon="5.1188960">
    <ele>305</ele>
   </trkpt>
   <trkpt lat="50.2783200" lon="5.1199730">
    <ele>306</ele>
   </trkpt>
   <trkpt lat="50.2794940" lon="5.1216170">
    <ele>306</ele>
   </trkpt>
   <trkpt lat="50.2797830" lon="5.1220750">
    <ele>307</ele>
   </trkpt>
   <trkpt lat="50.2801980" lon="5.1228830">
    <ele>307</ele>
   </trkpt>
   <trkpt lat="50.2811850" lon="5.1254950">
    <ele>309</ele>
   </trkpt>
   <trkpt lat="50.2834829" lon="5.1307159">
    <ele>312</ele>
   </trkpt>
   <trkpt lat="50.2825090" lon="5.1306060">
    <ele>310</ele>
   </trkpt>
   <trkpt lat="50.2823000" lon="5.1307670">
    <ele>310</ele>
   </trkpt>
   <trkpt lat="50.2819450" lon="5.1311520">
    <ele>309</ele>
   </trkpt>
   <trkpt lat="50.2818040" lon="5.1313280">
    <ele>309</ele>
   </trkpt>
   <trkpt lat="50.2815000" lon="5.1318010">
    <ele>306</ele>
   </trkpt>
   <trkpt lat="50.2805760" lon="5.1334620">
    <ele>296</ele>
   </trkpt>
   <trkpt lat="50.2801810" lon="5.1343520">
    <ele>296</ele>
   </trkpt>
   <trkpt lat="50.2800320" lon="5.1345250">
    <ele>296</ele>
   </trkpt>
   <trkpt lat="50.2799620" lon="5.1345330">
    <ele>296</ele>
   </trkpt>
   <trkpt lat="50.2797810" lon="5.1344060">
    <ele>296</ele>
   </trkpt>
   <trkpt lat="50.2796779" lon="5.1342930">
    <ele>296</ele>
   </trkpt>
  </trkseg>
 </trk>
</gpx>
