<?xml version="1.0" encoding="UTF-8"?>
<gpx xmlns="http://www.topografix.com/GPX/1/1" xmlns:gpxdata="http://www.cluetrust.com/XML/GPXDATA/1/0" xmlns:xsi="http://www.w3.org/2001/XMLSchema-instance" xsi:schemaLocation="http://www.topografix.com/GPX/1/1 https://www.topografix.com/GPX/1/1/gpx.xsd http://www.cluetrust.com/XML/GPXDATA/1/0 https://www.cluetrust.com/Schemas/gpxdata10.xsd" creator="COROS Wearables" version="1.1">
 <metadata>
  <link href="https://www.coros.com">
   <text>COROS</text>
  </link>
  <time>2026-07-25T09:57:56Z</time>
 </metadata>
 <trk>
  <name>10km Ciney</name>
  <type>running</type>
  <trkseg>
   <trkpt lat="50.2799460" lon="5.1347030">
    <ele>290</ele>
   </trkpt>
   <trkpt lat="50.2799620" lon="5.1345330">
    <ele>290</ele>
   </trkpt>
   <trkpt lat="50.2800320" lon="5.1345250">
    <ele>290</ele>
   </trkpt>
   <trkpt lat="50.2801210" lon="5.1344390">
    <ele>290</ele>
   </trkpt>
   <trkpt lat="50.2801800" lon="5.1343510">
    <ele>291</ele>
   </trkpt>
   <trkpt lat="50.2802050" lon="5.1343180">
    <ele>291</ele>
   </trkpt>
   <trkpt lat="50.2802940" lon="5.1341190">
    <ele>292</ele>
   </trkpt>
   <trkpt lat="50.2804120" lon="5.1338480">
    <ele>295</ele>
   </trkpt>
   <trkpt lat="50.2805760" lon="5.1334620">
    <ele>299</ele>
   </trkpt>
   <trkpt lat="50.2807630" lon="5.1331140">
    <ele>302</ele>
   </trkpt>
   <trkpt lat="50.2813130" lon="5.1321400">
    <ele>310</ele>
   </trkpt>
   <trkpt lat="50.2815000" lon="5.1318010">
    <ele>311</ele>
   </trkpt>
   <trkpt lat="50.2816680" lon="5.1315320">
    <ele>312</ele>
   </trkpt>
   <trkpt lat="50.2818040" lon="5.1313280">
    <ele>313</ele>
   </trkpt>
   <trkpt lat="50.2819450" lon="5.1311520">
    <ele>314</ele>
   </trkpt>
   <trkpt lat="50.2820920" lon="5.1309860">
    <ele>314</ele>
   </trkpt>
   <trkpt lat="50.2823000" lon="5.1307670">
    <ele>314</ele>
   </trkpt>
   <trkpt lat="50.2824140" lon="5.1306670">
    <ele>315</ele>
   </trkpt>
   <trkpt lat="50.2825090" lon="5.1306060">
    <ele>315</ele>
   </trkpt>
   <trkpt lat="50.2826270" lon="5.1306060">
    <ele>316</ele>
   </trkpt>
   <trkpt lat="50.2828230" lon="5.1306370">
    <ele>318</ele>
   </trkpt>
   <trkpt lat="50.2828760" lon="5.1306450">
    <ele>319</ele>
   </trkpt>
   <trkpt lat="50.2832650" lon="5.1306890">
    <ele>320</ele>
   </trkpt>
   <trkpt lat="50.2834830" lon="5.1307160">
    <ele>320</ele>
   </trkpt>
   <trkpt lat="50.2835400" lon="5.1307230">
    <ele>320</ele>
   </trkpt>
   <trkpt lat="50.2834830" lon="5.1307160">
    <ele>320</ele>
   </trkpt>
   <trkpt lat="50.2831930" lon="5.1300550">
    <ele>313</ele>
   </trkpt>
   <trkpt lat="50.2823280" lon="5.1281010">
    <ele>317</ele>
   </trkpt>
   <trkpt lat="50.2818350" lon="5.1270060">
    <ele>316</ele>
   </trkpt>
   <trkpt lat="50.2811850" lon="5.1254950">
    <ele>314</ele>
   </trkpt>
   <trkpt lat="50.2817770" lon="5.1242370">
    <ele>310</ele>
   </trkpt>
   <trkpt lat="50.2823910" lon="5.1229280">
    <ele>301</ele>
   </trkpt>
   <trkpt lat="50.2825020" lon="5.1226690">
    <ele>298</ele>
   </trkpt>
   <trkpt lat="50.2825810" lon="5.1223780">
    <ele>297</ele>
   </trkpt>
   <trkpt lat="50.2826540" lon="5.1220500">
    <ele>293</ele>
   </trkpt>
   <trkpt lat="50.2827210" lon="5.1217580">
    <ele>290</ele>
   </trkpt>
   <trkpt lat="50.2827770" lon="5.1214590">
    <ele>287</ele>
   </trkpt>
   <trkpt lat="50.2828140" lon="5.1211630">
    <ele>286</ele>
   </trkpt>
   <trkpt lat="50.2828230" lon="5.1209760">
    <ele>285</ele>
   </trkpt>
   <trkpt lat="50.2828080" lon="5.1207400">
    <ele>284</ele>
   </trkpt>
   <trkpt lat="50.2827480" lon="5.1203960">
    <ele>283</ele>
   </trkpt>
   <trkpt lat="50.2825900" lon="5.1194330">
    <ele>281</ele>
   </trkpt>
   <trkpt lat="50.2825900" lon="5.1194090">
    <ele>281</ele>
   </trkpt>
   <trkpt lat="50.2825920" lon="5.1193280">
    <ele>281</ele>
   </trkpt>
   <trkpt lat="50.2825670" lon="5.1190470">
    <ele>278</ele>
   </trkpt>
   <trkpt lat="50.2825030" lon="5.1185490">
    <ele>275</ele>
   </trkpt>
   <trkpt lat="50.2823770" lon="5.1176820">
    <ele>272</ele>
   </trkpt>
   <trkpt lat="50.2823180" lon="5.1173110">
    <ele>271</ele>
   </trkpt>
   <trkpt lat="50.2822300" lon="5.1169260">
    <ele>271</ele>
   </trkpt>
   <trkpt lat="50.2821710" lon="5.1166700">
    <ele>270</ele>
   </trkpt>
   <trkpt lat="50.2819680" lon="5.1158790">
    <ele>269</ele>
   </trkpt>
   <trkpt lat="50.2819510" lon="5.1158140">
    <ele>269</ele>
   </trkpt>
   <trkpt lat="50.2818160" lon="5.1152630">
    <ele>268</ele>
   </trkpt>
   <trkpt lat="50.2816840" lon="5.1145560">
    <ele>265</ele>
   </trkpt>
   <trkpt lat="50.2816670" lon="5.1144480">
    <ele>265</ele>
   </trkpt>
   <trkpt lat="50.2816490" lon="5.1143370">
    <ele>266</ele>
   </trkpt>
   <trkpt lat="50.2816250" lon="5.1141340">
    <ele>265</ele>
   </trkpt>
   <trkpt lat="50.2815890" lon="5.1135700">
    <ele>265</ele>
   </trkpt>
   <trkpt lat="50.2815240" lon="5.1123680">
    <ele>262</ele>
   </trkpt>
   <trkpt lat="50.2815170" lon="5.1119330">
    <ele>261</ele>
   </trkpt>
   <trkpt lat="50.2809850" lon="5.1118050">
    <ele>264</ele>
   </trkpt>
   <trkpt lat="50.2807360" lon="5.1117430">
    <ele>265</ele>
   </trkpt>
   <trkpt lat="50.2802840" lon="5.1116370">
    <ele>267</ele>
   </trkpt>
   <trkpt lat="50.2798410" lon="5.1115280">
    <ele>269</ele>
   </trkpt>
   <trkpt lat="50.2795740" lon="5.1114650">
    <ele>271</ele>
   </trkpt>
   <trkpt lat="50.2793940" lon="5.1114370">
    <ele>272</ele>
   </trkpt>
   <trkpt lat="50.2791880" lon="5.1114290">
    <ele>273</ele>
   </trkpt>
   <trkpt lat="50.2787380" lon="5.1114280">
    <ele>273</ele>
   </trkpt>
   <trkpt lat="50.2784430" lon="5.1114320">
    <ele>274</ele>
   </trkpt>
   <trkpt lat="50.2780080" lon="5.1114320">
    <ele>282</ele>
   </trkpt>
   <trkpt lat="50.2773830" lon="5.1114290">
    <ele>289</ele>
   </trkpt>
   <trkpt lat="50.2770330" lon="5.1114280">
    <ele>291</ele>
   </trkpt>
   <trkpt lat="50.2766240" lon="5.1114250">
    <ele>291</ele>
   </trkpt>
   <trkpt lat="50.2762310" lon="5.1114170">
    <ele>294</ele>
   </trkpt>
   <trkpt lat="50.2758340" lon="5.1114120">
    <ele>297</ele>
   </trkpt>
   <trkpt lat="50.2754540" lon="5.1114140">
    <ele>298</ele>
   </trkpt>
   <trkpt lat="50.2751680" lon="5.1114160">
    <ele>302</ele>
   </trkpt>
   <trkpt lat="50.2750900" lon="5.1114180">
    <ele>302</ele>
   </trkpt>
   <trkpt lat="50.2748280" lon="5.1114230">
    <ele>304</ele>
   </trkpt>
   <trkpt lat="50.2744920" lon="5.1114460">
    <ele>305</ele>
   </trkpt>
   <trkpt lat="50.2743720" lon="5.1114500">
    <ele>305</ele>
   </trkpt>
   <trkpt lat="50.2741620" lon="5.1114580">
    <ele>304</ele>
   </trkpt>
   <trkpt lat="50.2739870" lon="5.1114570">
    <ele>303</ele>
   </trkpt>
   <trkpt lat="50.2738690" lon="5.1114590">
    <ele>299</ele>
   </trkpt>
   <trkpt lat="50.2736760" lon="5.1114750">
    <ele>297</ele>
   </trkpt>
   <trkpt lat="50.2736540" lon="5.1114350">
    <ele>297</ele>
   </trkpt>
   <trkpt lat="50.2736450" lon="5.1114090">
    <ele>295</ele>
   </trkpt>
   <trkpt lat="50.2734450" lon="5.1110700">
    <ele>292</ele>
   </trkpt>
   <trkpt lat="50.2732980" lon="5.1108540">
    <ele>289</ele>
   </trkpt>
   <trkpt lat="50.2731470" lon="5.1106510">
    <ele>288</ele>
   </trkpt>
   <trkpt lat="50.2729900" lon="5.1104580">
    <ele>286</ele>
   </trkpt>
   <trkpt lat="50.2728080" lon="5.1102570">
    <ele>285</ele>
   </trkpt>
   <trkpt lat="50.2726220" lon="5.1100660">
    <ele>284</ele>
   </trkpt>
   <trkpt lat="50.2725720" lon="5.1100150">
    <ele>283</ele>
   </trkpt>
   <trkpt lat="50.2723900" lon="5.1098330">
    <ele>283</ele>
   </trkpt>
   <trkpt lat="50.2721770" lon="5.1096360">
    <ele>283</ele>
   </trkpt>
   <trkpt lat="50.2720340" lon="5.1095050">
    <ele>283</ele>
   </trkpt>
   <trkpt lat="50.2717910" lon="5.1093330">
    <ele>282</ele>
   </trkpt>
   <trkpt lat="50.2716050" lon="5.1092180">
    <ele>279</ele>
   </trkpt>
   <trkpt lat="50.2714030" lon="5.1091040">
    <ele>277</ele>
   </trkpt>
   <trkpt lat="50.2712510" lon="5.1090270">
    <ele>277</ele>
   </trkpt>
   <trkpt lat="50.2711090" lon="5.1089710">
    <ele>276</ele>
   </trkpt>
   <trkpt lat="50.2710230" lon="5.1089440">
    <ele>276</ele>
   </trkpt>
   <trkpt lat="50.2709330" lon="5.1089240">
    <ele>275</ele>
   </trkpt>
   <trkpt lat="50.2708150" lon="5.1089270">
    <ele>275</ele>
   </trkpt>
   <trkpt lat="50.2707060" lon="5.1089610">
    <ele>274</ele>
   </trkpt>
   <trkpt lat="50.2706150" lon="5.1090010">
    <ele>275</ele>
   </trkpt>
   <trkpt lat="50.2705130" lon="5.1090790">
    <ele>275</ele>
   </trkpt>
   <trkpt lat="50.2704100" lon="5.1091810">
    <ele>275</ele>
   </trkpt>
   <trkpt lat="50.2703050" lon="5.1093240">
    <ele>274</ele>
   </trkpt>
   <trkpt lat="50.2701780" lon="5.1095250">
    <ele>276</ele>
   </trkpt>
   <trkpt lat="50.2701110" lon="5.1096110">
    <ele>275</ele>
   </trkpt>
   <trkpt lat="50.2699570" lon="5.1097680">
    <ele>275</ele>
   </trkpt>
   <trkpt lat="50.2698510" lon="5.1098780">
    <ele>274</ele>
   </trkpt>
   <trkpt lat="50.2697610" lon="5.1099710">
    <ele>273</ele>
   </trkpt>
   <trkpt lat="50.2696180" lon="5.1101160">
    <ele>271</ele>
   </trkpt>
   <trkpt lat="50.2695090" lon="5.1101980">
    <ele>270</ele>
   </trkpt>
   <trkpt lat="50.2693850" lon="5.1102870">
    <ele>269</ele>
   </trkpt>
   <trkpt lat="50.2692980" lon="5.1103470">
    <ele>267</ele>
   </trkpt>
   <trkpt lat="50.2692380" lon="5.1103880">
    <ele>267</ele>
   </trkpt>
   <trkpt lat="50.2691360" lon="5.1104580">
    <ele>266</ele>
   </trkpt>
   <trkpt lat="50.2689740" lon="5.1105940">
    <ele>265</ele>
   </trkpt>
   <trkpt lat="50.2687780" lon="5.1107030">
    <ele>263</ele>
   </trkpt>
   <trkpt lat="50.2686410" lon="5.1105880">
    <ele>263</ele>
   </trkpt>
   <trkpt lat="50.2685850" lon="5.1105550">
    <ele>262</ele>
   </trkpt>
   <trkpt lat="50.2684760" lon="5.1104920">
    <ele>261</ele>
   </trkpt>
   <trkpt lat="50.2683360" lon="5.1104440">
    <ele>260</ele>
   </trkpt>
   <trkpt lat="50.2681720" lon="5.1104680">
    <ele>259</ele>
   </trkpt>
   <trkpt lat="50.2681940" lon="5.1106370">
    <ele>259</ele>
   </trkpt>
   <trkpt lat="50.2682430" lon="5.1108080">
    <ele>259</ele>
   </trkpt>
   <trkpt lat="50.2683010" lon="5.1110010">
    <ele>259</ele>
   </trkpt>
   <trkpt lat="50.2683460" lon="5.1111710">
    <ele>258</ele>
   </trkpt>
   <trkpt lat="50.2683820" lon="5.1112650">
    <ele>258</ele>
   </trkpt>
   <trkpt lat="50.2683970" lon="5.1113550">
    <ele>259</ele>
   </trkpt>
   <trkpt lat="50.2682660" lon="5.1117270">
    <ele>258</ele>
   </trkpt>
   <trkpt lat="50.2681460" lon="5.1121070">
    <ele>258</ele>
   </trkpt>
   <trkpt lat="50.2680980" lon="5.1123030">
    <ele>259</ele>
   </trkpt>
   <trkpt lat="50.2680530" lon="5.1125100">
    <ele>259</ele>
   </trkpt>
   <trkpt lat="50.2680420" lon="5.1125640">
    <ele>259</ele>
   </trkpt>
   <trkpt lat="50.2679970" lon="5.1127940">
    <ele>260</ele>
   </trkpt>
   <trkpt lat="50.2679910" lon="5.1128300">
    <ele>260</ele>
   </trkpt>
   <trkpt lat="50.2679630" lon="5.1129730">
    <ele>261</ele>
   </trkpt>
   <trkpt lat="50.2678550" lon="5.1135180">
    <ele>265</ele>
   </trkpt>
   <trkpt lat="50.2677610" lon="5.1139010">
    <ele>267</ele>
   </trkpt>
   <trkpt lat="50.2677180" lon="5.1140410">
    <ele>268</ele>
   </trkpt>
   <trkpt lat="50.2676630" lon="5.1141700">
    <ele>269</ele>
   </trkpt>
   <trkpt lat="50.2675480" lon="5.1143520">
    <ele>269</ele>
   </trkpt>
   <trkpt lat="50.2674900" lon="5.1144170">
    <ele>270</ele>
   </trkpt>
   <trkpt lat="50.2674870" lon="5.1144200">
    <ele>270</ele>
   </trkpt>
   <trkpt lat="50.2674860" lon="5.1144210">
    <ele>270</ele>
   </trkpt>
   <trkpt lat="50.2673990" lon="5.1145190">
    <ele>270</ele>
   </trkpt>
   <trkpt lat="50.2672350" lon="5.1147510">
    <ele>270</ele>
   </trkpt>
   <trkpt lat="50.2671010" lon="5.1149970">
    <ele>271</ele>
   </trkpt>
   <trkpt lat="50.2670470" lon="5.1151460">
    <ele>271</ele>
   </trkpt>
   <trkpt lat="50.2670110" lon="5.1153290">
    <ele>271</ele>
   </trkpt>
   <trkpt lat="50.2670040" lon="5.1155160">
    <ele>272</ele>
   </trkpt>
   <trkpt lat="50.2670200" lon="5.1157200">
    <ele>272</ele>
   </trkpt>
   <trkpt lat="50.2670730" lon="5.1160120">
    <ele>273</ele>
   </trkpt>
   <trkpt lat="50.2670270" lon="5.1160940">
    <ele>273</ele>
   </trkpt>
   <trkpt lat="50.2669860" lon="5.1162350">
    <ele>273</ele>
   </trkpt>
   <trkpt lat="50.2668870" lon="5.1166760">
    <ele>272</ele>
   </trkpt>
   <trkpt lat="50.2667650" lon="5.1172110">
    <ele>270</ele>
   </trkpt>
   <trkpt lat="50.2666560" lon="5.1176850">
    <ele>270</ele>
   </trkpt>
   <trkpt lat="50.2665780" lon="5.1180970">
    <ele>270</ele>
   </trkpt>
   <trkpt lat="50.2665340" lon="5.1182490">
    <ele>270</ele>
   </trkpt>
   <trkpt lat="50.2664840" lon="5.1183820">
    <ele>271</ele>
   </trkpt>
   <trkpt lat="50.2664240" lon="5.1185080">
    <ele>272</ele>
   </trkpt>
   <trkpt lat="50.2663570" lon="5.1186360">
    <ele>272</ele>
   </trkpt>
   <trkpt lat="50.2661560" lon="5.1189890">
    <ele>273</ele>
   </trkpt>
   <trkpt lat="50.2660430" lon="5.1191890">
    <ele>274</ele>
   </trkpt>
   <trkpt lat="50.2659870" lon="5.1193110">
    <ele>274</ele>
   </trkpt>
   <trkpt lat="50.2658810" lon="5.1195660">
    <ele>275</ele>
   </trkpt>
   <trkpt lat="50.2658200" lon="5.1197520">
    <ele>276</ele>
   </trkpt>
   <trkpt lat="50.2657810" lon="5.1199000">
    <ele>277</ele>
   </trkpt>
   <trkpt lat="50.2657460" lon="5.1200630">
    <ele>278</ele>
   </trkpt>
   <trkpt lat="50.2657020" lon="5.1202510">
    <ele>279</ele>
   </trkpt>
   <trkpt lat="50.2656620" lon="5.1203580">
    <ele>280</ele>
   </trkpt>
   <trkpt lat="50.2655980" lon="5.1205010">
    <ele>281</ele>
   </trkpt>
   <trkpt lat="50.2655550" lon="5.1205840">
    <ele>281</ele>
   </trkpt>
   <trkpt lat="50.2654870" lon="5.1206870">
    <ele>282</ele>
   </trkpt>
   <trkpt lat="50.2654200" lon="5.1207690">
    <ele>282</ele>
   </trkpt>
   <trkpt lat="50.2653470" lon="5.1208430">
    <ele>283</ele>
   </trkpt>
   <trkpt lat="50.2651510" lon="5.1210210">
    <ele>284</ele>
   </trkpt>
   <trkpt lat="50.2647250" lon="5.1213750">
    <ele>287</ele>
   </trkpt>
   <trkpt lat="50.2645650" lon="5.1214960">
    <ele>289</ele>
   </trkpt>
   <trkpt lat="50.2641830" lon="5.1218190">
    <ele>292</ele>
   </trkpt>
   <trkpt lat="50.2638840" lon="5.1223280">
    <ele>289</ele>
   </trkpt>
   <trkpt lat="50.2637400" lon="5.1225300">
    <ele>289</ele>
   </trkpt>
   <trkpt lat="50.2635730" lon="5.1227050">
    <ele>288</ele>
   </trkpt>
   <trkpt lat="50.2633350" lon="5.1229420">
    <ele>284</ele>
   </trkpt>
   <trkpt lat="50.2631750" lon="5.1231150">
    <ele>283</ele>
   </trkpt>
   <trkpt lat="50.2629990" lon="5.1233060">
    <ele>279</ele>
   </trkpt>
   <trkpt lat="50.2629070" lon="5.1234270">
    <ele>279</ele>
   </trkpt>
   <trkpt lat="50.2628670" lon="5.1235050">
    <ele>277</ele>
   </trkpt>
   <trkpt lat="50.2628300" lon="5.1236010">
    <ele>277</ele>
   </trkpt>
   <trkpt lat="50.2628060" lon="5.1236750">
    <ele>277</ele>
   </trkpt>
   <trkpt lat="50.2627890" lon="5.1237530">
    <ele>276</ele>
   </trkpt>
   <trkpt lat="50.2627740" lon="5.1238460">
    <ele>276</ele>
   </trkpt>
   <trkpt lat="50.2627640" lon="5.1239670">
    <ele>276</ele>
   </trkpt>
   <trkpt lat="50.2627580" lon="5.1240410">
    <ele>276</ele>
   </trkpt>
   <trkpt lat="50.2627440" lon="5.1241500">
    <ele>276</ele>
   </trkpt>
   <trkpt lat="50.2627220" lon="5.1242390">
    <ele>276</ele>
   </trkpt>
   <trkpt lat="50.2626930" lon="5.1243430">
    <ele>277</ele>
   </trkpt>
   <trkpt lat="50.2626400" lon="5.1245100">
    <ele>275</ele>
   </trkpt>
   <trkpt lat="50.2625960" lon="5.1247280">
    <ele>276</ele>
   </trkpt>
   <trkpt lat="50.2625760" lon="5.1248970">
    <ele>277</ele>
   </trkpt>
   <trkpt lat="50.2625610" lon="5.1250290">
    <ele>275</ele>
   </trkpt>
   <trkpt lat="50.2625430" lon="5.1251510">
    <ele>276</ele>
   </trkpt>
   <trkpt lat="50.2624950" lon="5.1253910">
    <ele>276</ele>
   </trkpt>
   <trkpt lat="50.2624430" lon="5.1256130">
    <ele>274</ele>
   </trkpt>
   <trkpt lat="50.2624050" lon="5.1257690">
    <ele>273</ele>
   </trkpt>
   <trkpt lat="50.2623910" lon="5.1258580">
    <ele>272</ele>
   </trkpt>
   <trkpt lat="50.2623840" lon="5.1259060">
    <ele>272</ele>
   </trkpt>
   <trkpt lat="50.2623840" lon="5.1260510">
    <ele>272</ele>
   </trkpt>
   <trkpt lat="50.2623960" lon="5.1264030">
    <ele>271</ele>
   </trkpt>
   <trkpt lat="50.2623970" lon="5.1264890">
    <ele>271</ele>
   </trkpt>
   <trkpt lat="50.2623940" lon="5.1265880">
    <ele>270</ele>
   </trkpt>
   <trkpt lat="50.2623840" lon="5.1266730">
    <ele>270</ele>
   </trkpt>
   <trkpt lat="50.2623440" lon="5.1268370">
    <ele>269</ele>
   </trkpt>
   <trkpt lat="50.2623310" lon="5.1269380">
    <ele>270</ele>
   </trkpt>
   <trkpt lat="50.2620260" lon="5.1272070">
    <ele>271</ele>
   </trkpt>
   <trkpt lat="50.2619570" lon="5.1273470">
    <ele>271</ele>
   </trkpt>
   <trkpt lat="50.2618770" lon="5.1275310">
    <ele>273</ele>
   </trkpt>
   <trkpt lat="50.2618240" lon="5.1276530">
    <ele>273</ele>
   </trkpt>
   <trkpt lat="50.2617830" lon="5.1277270">
    <ele>274</ele>
   </trkpt>
   <trkpt lat="50.2617350" lon="5.1277920">
    <ele>274</ele>
   </trkpt>
   <trkpt lat="50.2617020" lon="5.1278260">
    <ele>274</ele>
   </trkpt>
   <trkpt lat="50.2616720" lon="5.1278570">
    <ele>274</ele>
   </trkpt>
   <trkpt lat="50.2616050" lon="5.1279030">
    <ele>275</ele>
   </trkpt>
   <trkpt lat="50.2614770" lon="5.1279750">
    <ele>276</ele>
   </trkpt>
   <trkpt lat="50.2613520" lon="5.1280510">
    <ele>277</ele>
   </trkpt>
   <trkpt lat="50.2612650" lon="5.1281270">
    <ele>277</ele>
   </trkpt>
   <trkpt lat="50.2612090" lon="5.1282070">
    <ele>277</ele>
   </trkpt>
   <trkpt lat="50.2611690" lon="5.1282720">
    <ele>278</ele>
   </trkpt>
   <trkpt lat="50.2610750" lon="5.1284430">
    <ele>279</ele>
   </trkpt>
   <trkpt lat="50.2610130" lon="5.1285730">
    <ele>280</ele>
   </trkpt>
   <trkpt lat="50.2609480" lon="5.1286830">
    <ele>280</ele>
   </trkpt>
   <trkpt lat="50.2609140" lon="5.1287700">
    <ele>280</ele>
   </trkpt>
   <trkpt lat="50.2608710" lon="5.1288820">
    <ele>280</ele>
   </trkpt>
   <trkpt lat="50.2608520" lon="5.1289570">
    <ele>281</ele>
   </trkpt>
   <trkpt lat="50.2608250" lon="5.1291200">
    <ele>281</ele>
   </trkpt>
   <trkpt lat="50.2608090" lon="5.1293330">
    <ele>281</ele>
   </trkpt>
   <trkpt lat="50.2608080" lon="5.1293780">
    <ele>281</ele>
   </trkpt>
   <trkpt lat="50.2608040" lon="5.1295090">
    <ele>282</ele>
   </trkpt>
   <trkpt lat="50.2608060" lon="5.1296420">
    <ele>282</ele>
   </trkpt>
   <trkpt lat="50.2608070" lon="5.1296960">
    <ele>282</ele>
   </trkpt>
   <trkpt lat="50.2608180" lon="5.1298200">
    <ele>284</ele>
   </trkpt>
   <trkpt lat="50.2607910" lon="5.1298560">
    <ele>282</ele>
   </trkpt>
   <trkpt lat="50.2607790" lon="5.1299380">
    <ele>282</ele>
   </trkpt>
   <trkpt lat="50.2607800" lon="5.1300340">
    <ele>282</ele>
   </trkpt>
   <trkpt lat="50.2607820" lon="5.1301200">
    <ele>282</ele>
   </trkpt>
   <trkpt lat="50.2607980" lon="5.1301820">
    <ele>282</ele>
   </trkpt>
   <trkpt lat="50.2608250" lon="5.1302610">
    <ele>284</ele>
   </trkpt>
   <trkpt lat="50.2608360" lon="5.1303300">
    <ele>284</ele>
   </trkpt>
   <trkpt lat="50.2608320" lon="5.1304180">
    <ele>284</ele>
   </trkpt>
   <trkpt lat="50.2608250" lon="5.1304910">
    <ele>283</ele>
   </trkpt>
   <trkpt lat="50.2608420" lon="5.1308050">
    <ele>283</ele>
   </trkpt>
   <trkpt lat="50.2608670" lon="5.1312000">
    <ele>282</ele>
   </trkpt>
   <trkpt lat="50.2608790" lon="5.1313460">
    <ele>282</ele>
   </trkpt>
   <trkpt lat="50.2609230" lon="5.1315190">
    <ele>282</ele>
   </trkpt>
   <trkpt lat="50.2609130" lon="5.1318170">
    <ele>282</ele>
   </trkpt>
   <trkpt lat="50.2609050" lon="5.1322090">
    <ele>282</ele>
   </trkpt>
   <trkpt lat="50.2608980" lon="5.1323510">
    <ele>281</ele>
   </trkpt>
   <trkpt lat="50.2608860" lon="5.1324430">
    <ele>281</ele>
   </trkpt>
   <trkpt lat="50.2608520" lon="5.1326700">
    <ele>281</ele>
   </trkpt>
   <trkpt lat="50.2608230" lon="5.1327670">
    <ele>281</ele>
   </trkpt>
   <trkpt lat="50.2607850" lon="5.1328810">
    <ele>280</ele>
   </trkpt>
   <trkpt lat="50.2606780" lon="5.1331880">
    <ele>279</ele>
   </trkpt>
   <trkpt lat="50.2606620" lon="5.1332410">
    <ele>279</ele>
   </trkpt>
   <trkpt lat="50.2606300" lon="5.1333410">
    <ele>279</ele>
   </trkpt>
   <trkpt lat="50.2606010" lon="5.1334340">
    <ele>279</ele>
   </trkpt>
   <trkpt lat="50.2605700" lon="5.1335740">
    <ele>278</ele>
   </trkpt>
   <trkpt lat="50.2605460" lon="5.1336730">
    <ele>278</ele>
   </trkpt>
   <trkpt lat="50.2604180" lon="5.1344330">
    <ele>277</ele>
   </trkpt>
   <trkpt lat="50.2604040" lon="5.1345120">
    <ele>277</ele>
   </trkpt>
   <trkpt lat="50.2603850" lon="5.1346250">
    <ele>277</ele>
   </trkpt>
   <trkpt lat="50.2603240" lon="5.1350030">
    <ele>277</ele>
   </trkpt>
   <trkpt lat="50.2603070" lon="5.1351410">
    <ele>277</ele>
   </trkpt>
   <trkpt lat="50.2602900" lon="5.1353860">
    <ele>277</ele>
   </trkpt>
   <trkpt lat="50.2602830" lon="5.1355140">
    <ele>278</ele>
   </trkpt>
   <trkpt lat="50.2602730" lon="5.1356070">
    <ele>278</ele>
   </trkpt>
   <trkpt lat="50.2602570" lon="5.1356660">
    <ele>277</ele>
   </trkpt>
   <trkpt lat="50.2602340" lon="5.1357110">
    <ele>277</ele>
   </trkpt>
   <trkpt lat="50.2602020" lon="5.1357300">
    <ele>277</ele>
   </trkpt>
   <trkpt lat="50.2600990" lon="5.1357430">
    <ele>276</ele>
   </trkpt>
   <trkpt lat="50.2599950" lon="5.1357710">
    <ele>276</ele>
   </trkpt>
   <trkpt lat="50.2598890" lon="5.1358210">
    <ele>276</ele>
   </trkpt>
   <trkpt lat="50.2598620" lon="5.1358580">
    <ele>276</ele>
   </trkpt>
   <trkpt lat="50.2598120" lon="5.1359270">
    <ele>275</ele>
   </trkpt>
   <trkpt lat="50.2596540" lon="5.1361840">
    <ele>276</ele>
   </trkpt>
   <trkpt lat="50.2596200" lon="5.1362390">
    <ele>276</ele>
   </trkpt>
   <trkpt lat="50.2594990" lon="5.1364330">
    <ele>276</ele>
   </trkpt>
   <trkpt lat="50.2594570" lon="5.1364840">
    <ele>277</ele>
   </trkpt>
   <trkpt lat="50.2594410" lon="5.1365050">
    <ele>277</ele>
   </trkpt>
   <trkpt lat="50.2593400" lon="5.1365900">
    <ele>276</ele>
   </trkpt>
   <trkpt lat="50.2592730" lon="5.1366470">
    <ele>276</ele>
   </trkpt>
   <trkpt lat="50.2592320" lon="5.1366680">
    <ele>276</ele>
   </trkpt>
   <trkpt lat="50.2591530" lon="5.1367070">
    <ele>276</ele>
   </trkpt>
   <trkpt lat="50.2590610" lon="5.1367330">
    <ele>276</ele>
   </trkpt>
   <trkpt lat="50.2590420" lon="5.1367360">
    <ele>276</ele>
   </trkpt>
   <trkpt lat="50.2590360" lon="5.1368160">
    <ele>277</ele>
   </trkpt>
   <trkpt lat="50.2589960" lon="5.1368680">
    <ele>277</ele>
   </trkpt>
   <trkpt lat="50.2588000" lon="5.1369480">
    <ele>279</ele>
   </trkpt>
   <trkpt lat="50.2586730" lon="5.1369980">
    <ele>283</ele>
   </trkpt>
   <trkpt lat="50.2585070" lon="5.1370770">
    <ele>284</ele>
   </trkpt>
   <trkpt lat="50.2583130" lon="5.1371740">
    <ele>286</ele>
   </trkpt>
   <trkpt lat="50.2582270" lon="5.1372180">
    <ele>285</ele>
   </trkpt>
   <trkpt lat="50.2581600" lon="5.1372720">
    <ele>285</ele>
   </trkpt>
   <trkpt lat="50.2581090" lon="5.1373460">
    <ele>287</ele>
   </trkpt>
   <trkpt lat="50.2580610" lon="5.1374430">
    <ele>286</ele>
   </trkpt>
   <trkpt lat="50.2580490" lon="5.1374910">
    <ele>288</ele>
   </trkpt>
   <trkpt lat="50.2580170" lon="5.1375440">
    <ele>288</ele>
   </trkpt>
   <trkpt lat="50.2579850" lon="5.1376340">
    <ele>288</ele>
   </trkpt>
   <trkpt lat="50.2579450" lon="5.1378020">
    <ele>288</ele>
   </trkpt>
   <trkpt lat="50.2579140" lon="5.1379890">
    <ele>290</ele>
   </trkpt>
   <trkpt lat="50.2578930" lon="5.1381610">
    <ele>291</ele>
   </trkpt>
   <trkpt lat="50.2578730" lon="5.1383490">
    <ele>293</ele>
   </trkpt>
   <trkpt lat="50.2578560" lon="5.1385210">
    <ele>294</ele>
   </trkpt>
   <trkpt lat="50.2578370" lon="5.1387440">
    <ele>293</ele>
   </trkpt>
   <trkpt lat="50.2578170" lon="5.1389560">
    <ele>293</ele>
   </trkpt>
   <trkpt lat="50.2577920" lon="5.1391180">
    <ele>294</ele>
   </trkpt>
   <trkpt lat="50.2577650" lon="5.1392520">
    <ele>294</ele>
   </trkpt>
   <trkpt lat="50.2577140" lon="5.1394710">
    <ele>294</ele>
   </trkpt>
   <trkpt lat="50.2576700" lon="5.1396460">
    <ele>295</ele>
   </trkpt>
   <trkpt lat="50.2575720" lon="5.1400340">
    <ele>296</ele>
   </trkpt>
   <trkpt lat="50.2574720" lon="5.1403950">
    <ele>295</ele>
   </trkpt>
   <trkpt lat="50.2574010" lon="5.1406880">
    <ele>296</ele>
   </trkpt>
   <trkpt lat="50.2573790" lon="5.1408280">
    <ele>296</ele>
   </trkpt>
   <trkpt lat="50.2573700" lon="5.1409610">
    <ele>297</ele>
   </trkpt>
   <trkpt lat="50.2574010" lon="5.1413590">
    <ele>299</ele>
   </trkpt>
   <trkpt lat="50.2574250" lon="5.1417050">
    <ele>300</ele>
   </trkpt>
   <trkpt lat="50.2574570" lon="5.1421800">
    <ele>300</ele>
   </trkpt>
   <trkpt lat="50.2574840" lon="5.1425350">
    <ele>301</ele>
   </trkpt>
   <trkpt lat="50.2575050" lon="5.1428110">
    <ele>303</ele>
   </trkpt>
   <trkpt lat="50.2574940" lon="5.1430550">
    <ele>303</ele>
   </trkpt>
   <trkpt lat="50.2575640" lon="5.1440490">
    <ele>305</ele>
   </trkpt>
   <trkpt lat="50.2576560" lon="5.1451720">
    <ele>306</ele>
   </trkpt>
   <trkpt lat="50.2576950" lon="5.1456970">
    <ele>308</ele>
   </trkpt>
   <trkpt lat="50.2577550" lon="5.1464950">
    <ele>308</ele>
   </trkpt>
   <trkpt lat="50.2577760" lon="5.1467770">
    <ele>308</ele>
   </trkpt>
   <trkpt lat="50.2578350" lon="5.1476120">
    <ele>308</ele>
   </trkpt>
   <trkpt lat="50.2578440" lon="5.1477210">
    <ele>308</ele>
   </trkpt>
   <trkpt lat="50.2578070" lon="5.1478980">
    <ele>308</ele>
   </trkpt>
   <trkpt lat="50.2577500" lon="5.1480400">
    <ele>308</ele>
   </trkpt>
   <trkpt lat="50.2575910" lon="5.1482240">
    <ele>308</ele>
   </trkpt>
   <trkpt lat="50.2572220" lon="5.1485990">
    <ele>309</ele>
   </trkpt>
   <trkpt lat="50.2570970" lon="5.1486870">
    <ele>309</ele>
   </trkpt>
   <trkpt lat="50.2571670" lon="5.1487480">
    <ele>309</ele>
   </trkpt>
   <trkpt lat="50.2572940" lon="5.1489040">
    <ele>309</ele>
   </trkpt>
   <trkpt lat="50.2575540" lon="5.1492760">
    <ele>309</ele>
   </trkpt>
   <trkpt lat="50.2578570" lon="5.1497390">
    <ele>309</ele>
   </trkpt>
   <trkpt lat="50.2581820" lon="5.1502490">
    <ele>312</ele>
   </trkpt>
   <trkpt lat="50.2584950" lon="5.1507390">
    <ele>313</ele>
   </trkpt>
   <trkpt lat="50.2585200" lon="5.1507770">
    <ele>314</ele>
   </trkpt>
   <trkpt lat="50.2587390" lon="5.1511040">
    <ele>315</ele>
   </trkpt>
   <trkpt lat="50.2589480" lon="5.1513950">
    <ele>314</ele>
   </trkpt>
   <trkpt lat="50.2590500" lon="5.1515350">
    <ele>315</ele>
   </trkpt>
   <trkpt lat="50.2593550" lon="5.1519560">
    <ele>314</ele>
   </trkpt>
   <trkpt lat="50.2595430" lon="5.1522210">
    <ele>314</ele>
   </trkpt>
   <trkpt lat="50.2598080" lon="5.1526310">
    <ele>312</ele>
   </trkpt>
   <trkpt lat="50.2599910" lon="5.1529230">
    <ele>313</ele>
   </trkpt>
   <trkpt lat="50.2601520" lon="5.1532060">
    <ele>313</ele>
   </trkpt>
   <trkpt lat="50.2602680" lon="5.1534210">
    <ele>313</ele>
   </trkpt>
   <trkpt lat="50.2604290" lon="5.1537470">
    <ele>313</ele>
   </trkpt>
   <trkpt lat="50.2605750" lon="5.1540790">
    <ele>312</ele>
   </trkpt>
   <trkpt lat="50.2607780" lon="5.1545610">
    <ele>312</ele>
   </trkpt>
   <trkpt lat="50.2609500" lon="5.1549780">
    <ele>313</ele>
   </trkpt>
   <trkpt lat="50.2611440" lon="5.1554720">
    <ele>313</ele>
   </trkpt>
   <trkpt lat="50.2611670" lon="5.1555310">
    <ele>313</ele>
   </trkpt>
   <trkpt lat="50.2612900" lon="5.1558490">
    <ele>313</ele>
   </trkpt>
   <trkpt lat="50.2614690" lon="5.1563420">
    <ele>314</ele>
   </trkpt>
   <trkpt lat="50.2615050" lon="5.1564440">
    <ele>316</ele>
   </trkpt>
   <trkpt lat="50.2615780" lon="5.1566530">
    <ele>317</ele>
   </trkpt>
   <trkpt lat="50.2618230" lon="5.1574580">
    <ele>322</ele>
   </trkpt>
   <trkpt lat="50.2631020" lon="5.1566800">
    <ele>321</ele>
   </trkpt>
   <trkpt lat="50.2633320" lon="5.1564480">
    <ele>322</ele>
   </trkpt>
   <trkpt lat="50.2635400" lon="5.1560870">
    <ele>322</ele>
   </trkpt>
   <trkpt lat="50.2638010" lon="5.1552650">
    <ele>313</ele>
   </trkpt>
   <trkpt lat="50.2639860" lon="5.1548180">
    <ele>305</ele>
   </trkpt>
   <trkpt lat="50.2639820" lon="5.1547010">
    <ele>305</ele>
   </trkpt>
   <trkpt lat="50.2638820" lon="5.1542720">
    <ele>302</ele>
   </trkpt>
   <trkpt lat="50.2639080" lon="5.1542180">
    <ele>300</ele>
   </trkpt>
   <trkpt lat="50.2640150" lon="5.1541750">
    <ele>299</ele>
   </trkpt>
   <trkpt lat="50.2641330" lon="5.1541320">
    <ele>297</ele>
   </trkpt>
   <trkpt lat="50.2641640" lon="5.1541110">
    <ele>297</ele>
   </trkpt>
   <trkpt lat="50.2641820" lon="5.1540460">
    <ele>297</ele>
   </trkpt>
   <trkpt lat="50.2641990" lon="5.1538690">
    <ele>296</ele>
   </trkpt>
   <trkpt lat="50.2642570" lon="5.1536730">
    <ele>296</ele>
   </trkpt>
   <trkpt lat="50.2643950" lon="5.1534980">
    <ele>295</ele>
   </trkpt>
   <trkpt lat="50.2645070" lon="5.1533670">
    <ele>295</ele>
   </trkpt>
   <trkpt lat="50.2646680" lon="5.1532120">
    <ele>297</ele>
   </trkpt>
   <trkpt lat="50.2650810" lon="5.1528120">
    <ele>301</ele>
   </trkpt>
   <trkpt lat="50.2652520" lon="5.1526270">
    <ele>301</ele>
   </trkpt>
   <trkpt lat="50.2653540" lon="5.1524920">
    <ele>300</ele>
   </trkpt>
   <trkpt lat="50.2654640" lon="5.1523160">
    <ele>300</ele>
   </trkpt>
   <trkpt lat="50.2656310" lon="5.1520560">
    <ele>299</ele>
   </trkpt>
   <trkpt lat="50.2656850" lon="5.1519720">
    <ele>299</ele>
   </trkpt>
   <trkpt lat="50.2659650" lon="5.1515600">
    <ele>300</ele>
   </trkpt>
   <trkpt lat="50.2661670" lon="5.1513080">
    <ele>302</ele>
   </trkpt>
   <trkpt lat="50.2662950" lon="5.1511480">
    <ele>304</ele>
   </trkpt>
   <trkpt lat="50.2665610" lon="5.1508560">
    <ele>308</ele>
   </trkpt>
   <trkpt lat="50.2668140" lon="5.1505800">
    <ele>310</ele>
   </trkpt>
   <trkpt lat="50.2670190" lon="5.1503310">
    <ele>312</ele>
   </trkpt>
   <trkpt lat="50.2672160" lon="5.1500570">
    <ele>314</ele>
   </trkpt>
   <trkpt lat="50.2674160" lon="5.1497970">
    <ele>316</ele>
   </trkpt>
   <trkpt lat="50.2676010" lon="5.1495970">
    <ele>317</ele>
   </trkpt>
   <trkpt lat="50.2680980" lon="5.1490620">
    <ele>323</ele>
   </trkpt>
   <trkpt lat="50.2684890" lon="5.1486630">
    <ele>325</ele>
   </trkpt>
   <trkpt lat="50.2687740" lon="5.1483960">
    <ele>325</ele>
   </trkpt>
   <trkpt lat="50.2688610" lon="5.1482670">
    <ele>326</ele>
   </trkpt>
   <trkpt lat="50.2689220" lon="5.1482850">
    <ele>326</ele>
   </trkpt>
   <trkpt lat="50.2689770" lon="5.1482700">
    <ele>326</ele>
   </trkpt>
   <trkpt lat="50.2692710" lon="5.1481480">
    <ele>325</ele>
   </trkpt>
   <trkpt lat="50.2693240" lon="5.1481140">
    <ele>326</ele>
   </trkpt>
   <trkpt lat="50.2695560" lon="5.1479640">
    <ele>325</ele>
   </trkpt>
   <trkpt lat="50.2697880" lon="5.1477950">
    <ele>324</ele>
   </trkpt>
   <trkpt lat="50.2700480" lon="5.1476040">
    <ele>321</ele>
   </trkpt>
   <trkpt lat="50.2711400" lon="5.1468350">
    <ele>310</ele>
   </trkpt>
   <trkpt lat="50.2713620" lon="5.1466360">
    <ele>309</ele>
   </trkpt>
   <trkpt lat="50.2715800" lon="5.1464320">
    <ele>310</ele>
   </trkpt>
   <trkpt lat="50.2720610" lon="5.1459610">
    <ele>316</ele>
   </trkpt>
   <trkpt lat="50.2723410" lon="5.1456900">
    <ele>318</ele>
   </trkpt>
   <trkpt lat="50.2725390" lon="5.1454900">
    <ele>319</ele>
   </trkpt>
   <trkpt lat="50.2726490" lon="5.1453780">
    <ele>321</ele>
   </trkpt>
   <trkpt lat="50.2728020" lon="5.1452430">
    <ele>324</ele>
   </trkpt>
   <trkpt lat="50.2728940" lon="5.1451710">
    <ele>326</ele>
   </trkpt>
   <trkpt lat="50.2729520" lon="5.1451130">
    <ele>326</ele>
   </trkpt>
   <trkpt lat="50.2731070" lon="5.1450020">
    <ele>329</ele>
   </trkpt>
   <trkpt lat="50.2734020" lon="5.1447910">
    <ele>330</ele>
   </trkpt>
   <trkpt lat="50.2737600" lon="5.1445430">
    <ele>325</ele>
   </trkpt>
   <trkpt lat="50.2739180" lon="5.1444240">
    <ele>324</ele>
   </trkpt>
   <trkpt lat="50.2741550" lon="5.1442450">
    <ele>323</ele>
   </trkpt>
   <trkpt lat="50.2743470" lon="5.1440830">
    <ele>321</ele>
   </trkpt>
   <trkpt lat="50.2747580" lon="5.1436950">
    <ele>319</ele>
   </trkpt>
   <trkpt lat="50.2751780" lon="5.1432770">
    <ele>315</ele>
   </trkpt>
   <trkpt lat="50.2755190" lon="5.1429440">
    <ele>306</ele>
   </trkpt>
   <trkpt lat="50.2756530" lon="5.1428060">
    <ele>304</ele>
   </trkpt>
   <trkpt lat="50.2758800" lon="5.1425290">
    <ele>301</ele>
   </trkpt>
   <trkpt lat="50.2760600" lon="5.1422840">
    <ele>300</ele>
   </trkpt>
   <trkpt lat="50.2761740" lon="5.1421120">
    <ele>300</ele>
   </trkpt>
   <trkpt lat="50.2763220" lon="5.1418860">
    <ele>301</ele>
   </trkpt>
   <trkpt lat="50.2764060" lon="5.1417430">
    <ele>302</ele>
   </trkpt>
   <trkpt lat="50.2765040" lon="5.1415490">
    <ele>303</ele>
   </trkpt>
   <trkpt lat="50.2765730" lon="5.1414250">
    <ele>303</ele>
   </trkpt>
   <trkpt lat="50.2766170" lon="5.1412720">
    <ele>304</ele>
   </trkpt>
   <trkpt lat="50.2766490" lon="5.1410500">
    <ele>303</ele>
   </trkpt>
   <trkpt lat="50.2766630" lon="5.1409190">
    <ele>303</ele>
   </trkpt>
   <trkpt lat="50.2766850" lon="5.1407980">
    <ele>302</ele>
   </trkpt>
   <trkpt lat="50.2767270" lon="5.1406760">
    <ele>303</ele>
   </trkpt>
   <trkpt lat="50.2768040" lon="5.1405570">
    <ele>302</ele>
   </trkpt>
   <trkpt lat="50.2769140" lon="5.1404080">
    <ele>304</ele>
   </trkpt>
   <trkpt lat="50.2770680" lon="5.1401620">
    <ele>303</ele>
   </trkpt>
   <trkpt lat="50.2772000" lon="5.1399110">
    <ele>303</ele>
   </trkpt>
   <trkpt lat="50.2772950" lon="5.1396380">
    <ele>300</ele>
   </trkpt>
   <trkpt lat="50.2773180" lon="5.1393880">
    <ele>298</ele>
   </trkpt>
   <trkpt lat="50.2773650" lon="5.1391370">
    <ele>292</ele>
   </trkpt>
   <trkpt lat="50.2774520" lon="5.1389000">
    <ele>291</ele>
   </trkpt>
   <trkpt lat="50.2777230" lon="5.1385400">
    <ele>285</ele>
   </trkpt>
   <trkpt lat="50.2779000" lon="5.1382860">
    <ele>280</ele>
   </trkpt>
   <trkpt lat="50.2780680" lon="5.1380430">
    <ele>278</ele>
   </trkpt>
   <trkpt lat="50.2782190" lon="5.1378340">
    <ele>276</ele>
   </trkpt>
   <trkpt lat="50.2782970" lon="5.1376470">
    <ele>274</ele>
   </trkpt>
   <trkpt lat="50.2783980" lon="5.1374440">
    <ele>273</ele>
   </trkpt>
   <trkpt lat="50.2786500" lon="5.1370740">
    <ele>273</ele>
   </trkpt>
   <trkpt lat="50.2787930" lon="5.1368070">
    <ele>273</ele>
   </trkpt>
   <trkpt lat="50.2790180" lon="5.1363920">
    <ele>273</ele>
   </trkpt>
   <trkpt lat="50.2791100" lon="5.1361760">
    <ele>274</ele>
   </trkpt>
   <trkpt lat="50.2791580" lon="5.1360640">
    <ele>275</ele>
   </trkpt>
   <trkpt lat="50.2793540" lon="5.1357190">
    <ele>276</ele>
   </trkpt>
   <trkpt lat="50.2795520" lon="5.1354080">
    <ele>280</ele>
   </trkpt>
   <trkpt lat="50.2797530" lon="5.1350840">
    <ele>284</ele>
   </trkpt>
   <trkpt lat="50.2799460" lon="5.1347030">
    <ele>290</ele>
   </trkpt>
  </trkseg>
 </trk>
</gpx>
